city,district,district_en,location,lat,lon
Москва,ОМВД России по району Таганский г. Москвы,OMVD of Russia for the Tagansky district of Moscow,ОМВД России по району Таганский г. Москвы,55.73482,37.68153
Москва,ОМВД России по району Котловка г. Москвы,OMVD of Russia in the district Kotlovka Moscow,ОМВД России по району Котловка г. Москвы,55.68162,37.60881
Москва,ОМВД России по району Черемушки г. Москвы,OMVD of Russia in the district of Cheryomushki in Moscow,ОМВД России по району Черемушки г. Москвы,55.66419,37.56408
Москва,ОМВД Медведково Южное,OmVD Medvedkovo South,"ОМВД Медведково Южное, Москва",55.87144,37.66158
Москва,ОМВД России по Обручевскому району г. Москвы,OMVD of Russia in the Obruchevsky district of Moscow,ОМВД России по Обручевскому району г. Москвы,55.65618,37.54413
Москва,ОМВД России по району Чертаново Центральное г. Москвы,OMVD of Russia in the area of ​​Chertanovo Central Moscow,ОМВД России по району Чертаново Центральное г. Москвы,55.6187,37.59461
Москва,ОМВД России по району Братеево г. Москвы,OMVD of Russia in the district of Brateevo Moscow,ОМВД России по району Братеево г. Москвы,55.63536,37.77109
Москва,Отдел МВД России по Мещанскому району г. Москвы,Department of the Ministry of Internal Affairs of Russia in the Meshchansky district of Moscow,Отдел МВД России по Мещанскому району г. Москвы,55.7685,37.63139
Москва,Отдел МВД России по району Люблино,Department of the Ministry of Internal Affairs of Russia in the area of ​​Lublino,"Отдел МВД России по району Люблино, Москва",55.66987,37.75103
Москва,ОМВД Бабушкинский,OMVD Babushkin,"ОМВД Бабушкинский, Москва",55.87144,37.66158
Москва,Отдел МВД России по району Китай-город г. Москвы,Department of the Ministry of Internal Affairs of Russia in the district of China-city of Moscow,Отдел МВД России по району Китай-город г. Москвы,55.7685,37.63139
Москва,Отдел МВД России по району Замоскворечье г. Москвы,Department of the Ministry of Internal Affairs of Russia in the area of ​​Zamoskvorechye Moscow,Отдел МВД России по району Замоскворечье г. Москвы,55.73642,37.62877
Москва,ОМВД России по району Дегунино Западное г. Москвы,OMVD of Russia in the District of Degunino Western Moscow,ОМВД России по району Дегунино Западное г. Москвы,55.86921,37.51319
Москва,ОМВД России по району Чертаново Северное г. Москвы,OMVD of Russia in the region of Chertanovo North Moscow,ОМВД России по району Чертаново Северное г. Москвы,55.62478,37.60313
Москва,ОМВД России по району Фили-Давыдково г. Москвы,OMVD of Russia in the district of Fili-Davydkovo G. Moscow,ОМВД России по району Фили-Давыдково г. Москвы,55.74648,37.4272
Москва,ОМВД России по району Нагатино-Садовники г. Москвы,OMVD of Russia in the area of ​​Nagatino-gardeners in Moscow,ОМВД России по району Нагатино-Садовники г. Москвы,55.65759,37.64008
Москва,Отдел МВД России по району Измайлово г. Москвы,Department of the Ministry of Internal Affairs of Russia in the area of ​​Izmailovo Moscow,Отдел МВД России по району Измайлово г. Москвы,55.79829,37.79737
Москва,ОМВД Бибирево,OMVD Bibirevo,"ОМВД Бибирево, Москва",55.8945,37.60167
Москва,Отдел МВД России по району Южное Тушино г. Москвы,Department of the Ministry of Internal Affairs of Russia in the South Tushino district of Moscow,Отдел МВД России по району Южное Тушино г. Москвы,55.83939,37.4362
Москва,ОМВД России по району Крюково г. Москвы,OMVD of Russia in the district of Kryukovo Moscow,ОМВД России по району Крюково г. Москвы,55.9776,37.15114
Москва,Отдел МВД России по району Капотня,Department of the Ministry of Internal Affairs of Russia in the area of ​​the Kapotnya,"Отдел МВД России по району Капотня, Москва",55.63711,37.80428
Москва,ОМВД России по району Сокольники г. Москвы,OMVD of Russia in the area of ​​Sokolniki in Moscow,ОМВД России по району Сокольники г. Москвы,55.78633,37.67562
Москва,Отдел МВД России по району Ново-Переделкино г. Москвы,Department of the Ministry of Internal Affairs of Russia in the New-Peredelkino district of Moscow,Отдел МВД России по району Ново-Переделкино г. Москвы,55.63603,37.35475
Москва,ОМВД России по району Хамовники г. Москвы,OMVD of Russia in the area of ​​Khamovnikov Moscow,ОМВД России по району Хамовники г. Москвы,55.72544,37.56238
Москва,ОМВД России по району Тверской г. Москвы,OMVD of Russia in the district of Tver Moscow,ОМВД России по району Тверской г. Москвы,55.76997,37.61325
Москва,Участковый пункт полиции № 4 по Академческому району,Police district station number 4 on Academic District,"Участковый пункт полиции № 4 по Академческому району, Москва",55.68946,37.57638
Москва,ОМВД Медведково Северное,OMVD Medvedkovo North,"ОМВД Медведково Северное, Москва",55.88947,37.65488
Москва,Отдел МВД России по району Лефортово,Department of the Ministry of Internal Affairs of Russia for Lefortovo district,"Отдел МВД России по району Лефортово, Москва",55.75797,37.68042
Москва,Отдел МВД России по району Ивановское г. Москвы,Department of the Ministry of Internal Affairs of Russia in the district of Ivanovo Moscow,Отдел МВД России по району Ивановское г. Москвы,55.76183,37.83056
Москва,ОМВД России по Пресненскому району г. Москвы,OMVD of Russia in the Presnensky district of Moscow,ОМВД России по Пресненскому району г. Москвы,55.76062,37.5423
Москва,Отдел МВД России по району Строгино г. Москвы,Department of the Ministry of Internal Affairs of Russia for the district Strogino city of Moscow,Отдел МВД России по району Строгино г. Москвы,55.7949,37.39461
Москва,ОМВД России по району Аэропорт,OMVD of Russia for the airport area,"ОМВД России по району Аэропорт, Москва",55.80541,37.53761
Москва,Отдел МВД России по району Новогиреево г. Москвы,Department of the Ministry of Internal Affairs of Russia in Novogireevo district of Moscow,Отдел МВД России по району Новогиреево г. Москвы,55.74848,37.80502
Москва,Отдел МВД России по району Басманный г. Москвы,Department of the Ministry of Internal Affairs of Russia in the district Basmannaya Moscow,Отдел МВД России по району Басманный г. Москвы,55.76985,37.66676
Москва,Отдел МВД России по району Хорошево-Мневники г. Москвы,Department of the Ministry of Internal Affairs of Russia in the district of Khoroshevo-Mesvniki Moscow,Отдел МВД России по району Хорошево-Мневники г. Москвы,55.79041,37.4642
Москва,ОМВД Отрадное,OMVD Otradnoe,"ОМВД Отрадное, Москва",55.85799,37.61839
Москва,ОМВД России по району Бутово Южное г. Москвы,OMVD of Russia in the district of Butovo South Moscow,ОМВД России по району Бутово Южное г. Москвы,55.54416,37.54387
Москва,Отдел МВД России по району Покровское-Стрешнево г. Москвы,Department of the Ministry of Internal Affairs of Russia in the district of Pokrovskoe-Streshnevo Moscow,Отдел МВД России по району Покровское-Стрешнево г. Москвы,55.81755,37.44862
Москва,ОМВД России по району Дегунино Восточное г. Москвы,OMVD of Russia in the area of ​​Degunino Eastern Moscow,ОМВД России по району Дегунино Восточное г. Москвы,55.87035,37.56161
Москва,Отдел полиции № 1 МУ МВД «Орехово-Зуевское»,"Police Department No. 1 MU MVD ""Orekhovo-Zuevskoye""","Отдел полиции № 1 МУ МВД «Орехово-Зуевское», Москва",55.75626,37.60921
Москва,ОМВД Бутырский,OMVD Butyrsky,"ОМВД Бутырский, Москва",55.8112,37.58936
Москва,Отдел МВД России по району Северное Тушино г. Москвы,Department of the Ministry of Internal Affairs of Russia in the area of ​​the North Tushino of Moscow,Отдел МВД России по району Северное Тушино г. Москвы,55.86016,37.43437
Москва,ОМВД Лосиноостровский,OmVD Losinoostrovsky,"ОМВД Лосиноостровский, Москва",55.87377,37.68795
Москва,Отдел МВД России по району Арбат г. Москвы,Department of the Ministry of Internal Affairs of Russia in the Arbat district of Moscow,Отдел МВД России по району Арбат г. Москвы,55.74781,37.58908
Москва,Отдел МВД России по району Кузьминки,Department of the Ministry of Internal Affairs of Russia in the area of ​​Kuzminki,"Отдел МВД России по району Кузьминки, Москва",55.69747,37.78293
Москва,ОМВД России по району Преображенское г. Москвы,OMVD of Russia for the district of Transfiguration Moscow,ОМВД России по району Преображенское г. Москвы,55.7906,37.71015
Москва,ОМВД России по районам Матушкино и Савелки г. Москвы,OMVD of Russia in the districts of Matushkino and Savelki Moscow,ОМВД России по районам Матушкино и Савелки г. Москвы,56.01058,37.19716
Москва,ОМВД Ярославский,OMVD Yaroslavsky,"ОМВД Ярославский, Москва",55.86023,37.68909
Москва,Отдел МВД России по району Измайлово Северное г. Москвы,Department of the Ministry of Internal Affairs of Russia in the area of ​​Izmailovo North Moscow,Отдел МВД России по району Измайлово Северное г. Москвы,55.80705,37.78877
Москва,ОМВД России по Головинскому району,OMVD of Russia at the Golovinsky district,"ОМВД России по Головинскому району, Москва",55.85064,37.49928
Москва,Отдел МВД России по району Щукино г. Москвы,Department of the Ministry of Internal Affairs of Russia in the district of Schukino Moscow,Отдел МВД России по району Щукино г. Москвы,55.81043,37.45483
Москва,Лужники (отдел полиции по охране с/к),Luzhniki (Police Department with / K),"Лужники (отдел полиции по охране с/к), Москва",55.71947,37.55639
Москва,ОМВД России по Нагорному району г. Москвы,OMVD of Russia in the Nagorno district of Moscow,ОМВД России по Нагорному району г. Москвы,55.64461,37.60675
Москва,ОМВД России по району Перово г. Москвы,OMVD of Russia in the district of Perovo Moscow,ОМВД России по району Перово г. Москвы,55.76334,37.78748
Москва,Отдел МВД России по району Выхино-Жулебино г. Москвы,Department of the Ministry of Internal Affairs of Russia in the district of Vykhino-Zhulebino Moscow,Отдел МВД России по району Выхино-Жулебино г. Москвы,55.70563,37.80769
Москва,ОМВД России по району Бирюлёво Восточное г. Москвы,OMVD of Russia in the district of Biryulyo East Moscow,ОМВД России по району Бирюлёво Восточное г. Москвы,55.58268,37.69065
Москва,ОМВД России по району Коптево г. Москвы,OMVD of Russia in the Koptevo district of Moscow,ОМВД России по району Коптево г. Москвы,55.83427,37.52394
Москва,ОМВД России по району Бескудниково,OMVD of Russia in the area of ​​Bescordnikovo,"ОМВД России по району Бескудниково, Москва",55.87035,37.56161
Москва,МО МВД России «Щербинский» г. Москвы,"MO Ministry of Internal Affairs of Russia ""Shcherbinsky"" of Moscow",МО МВД России «Щербинский» г. Москвы,55.50029,37.54198
Москва,ОМВД России по району Академический г. Москвы,OMVD of Russia in the area of ​​the academic Moscow,ОМВД России по району Академический г. Москвы,55.68163,37.58746
Москва,ОМВД России по району Орехово-Борисово Южное г. Москвы,OMVD of Russia in the area of ​​Orekhovo-Borisovo South Moscow,ОМВД России по району Орехово-Борисово Южное г. Москвы,55.59971,37.73879
Москва,ОМВД России по району Ховрино г. Москвы,OMVD of Russia in the Khovrino district of Moscow,ОМВД России по району Ховрино г. Москвы,55.87033,37.48669
Москва,ОМВД России по району Ясенево г. Москвы,OMVD of Russia in the district of Yasenevo Moscow,ОМВД России по району Ясенево г. Москвы,55.6096,37.51387
Москва,ОМВД России по району Тропарево-Никулино г. Москва,OMVD of Russia in the District Troparevo-Nikulino Moscow,ОМВД России по району Тропарево-Никулино г. Москва,55.67482,37.49531
Москва,ОМВД Останкинский,OMVD Ostankinsky,"ОМВД Останкинский, Москва",55.81298,37.63553
Москва,ОМВД России по району Солнцево г. Москвы,OMVD of Russia in the area of ​​Solntsevo in Moscow,ОМВД России по району Солнцево г. Москвы,55.64386,37.40979
Москва,ОМВД России по району Тимирязевский г. Москвы,OMVD of Russia in the Timiryazevsky district of Moscow,ОМВД России по району Тимирязевский г. Москвы,55.8112,37.58936
Москва,Отдел МВД России по району Некрасовка,Department of the Ministry of Internal Affairs of Russia in the area necrasovka,"Отдел МВД России по району Некрасовка, Москва",55.70751,37.93009
Москва,Отдел МВД России по району Крылатское г. Москвы,Department of the Ministry of Internal Affairs of Russia in the area of ​​Krylatskoe Moscow,Отдел МВД России по району Крылатское г. Москвы,55.76386,37.4044
Москва,ОМВД России по району Теплый Стан г. Москвы,OMVD of Russia in the area of ​​the warm standard of Moscow,ОМВД России по району Теплый Стан г. Москвы,55.6096,37.51387
Москва,Отдел МВД России по району Кунцево г. Москвы,Department of the Ministry of Internal Affairs of Russia in the Kuntsevo district of Moscow,Отдел МВД России по району Кунцево г. Москвы,55.72846,37.407470000000004
Москва,ОМВД Марфино,OMVD Marfino,"ОМВД Марфино, Москва",55.8437,37.57382
Москва,Отдел МВД России по району Текстильщики,Department of the Ministry of Internal Affairs of Russia in the area of ​​textiles,"Отдел МВД России по району Текстильщики, Москва",55.72594,37.71579
Санкт-Петербург,Отдел полиции № 51 Московского района г. Санкт-Петербурга,Police Department No. 51 Moscow District of St. Petersburg,Отдел полиции № 51 Московского района г. Санкт-Петербурга,59.84048,30.32983
Санкт-Петербург,Отдел полиции № 75 Невского района г. Санкт-Петербурга,Police Department No. 75 Nevsky District of St. Petersburg,Отдел полиции № 75 Невского района г. Санкт-Петербурга,59.89734,30.49593
Санкт-Петербург,Отдел полиции № 8 Кировского района г. Санкт-Петербурга,Police Department No. 8 Kirovsky District of St. Petersburg,Отдел полиции № 8 Кировского района г. Санкт-Петербурга,59.8414,30.22806
Санкт-Петербург,Отдел полиции № 80 Колпинского района г. Санкт-Петербурга,Police Department No. 80 of the Kolpinsky district of St. Petersburg,Отдел полиции № 80 Колпинского района г. Санкт-Петербурга,59.73741,30.61865
Санкт-Петербург,Отдел полиции № 70 Невского района г. Санкт-Петербурга,Police Department No. 70 Nevsky District of St. Petersburg,Отдел полиции № 70 Невского района г. Санкт-Петербурга,59.88335,30.45471
Санкт-Петербург,Отдел полиции № 77 Адмиралтейского района г. Санкт-Петербурга,Police Department No. 77 Admiralty District of St. Petersburg,Отдел полиции № 77 Адмиралтейского района г. Санкт-Петербурга,59.90985,30.28225
Санкт-Петербург,Отдел полиции № 28 Центрального района г. Санкт-Петербурга,Police Department No. 28 of the Central District of St. Petersburg,Отдел полиции № 28 Центрального района г. Санкт-Петербурга,59.92033,30.33995
Санкт-Петербург,Отдел полиции № 1 Адмиралтейского района г. Санкт-Петербурга,Police Department No. 1 Admiralty District of St. Petersburg,Отдел полиции № 1 Адмиралтейского района г. Санкт-Петербурга,59.93244,30.29893
Санкт-Петербург,Отдел полиции № 26 по Красногвардейскому району г. Санкт-Петербурга,Police Department No. 26 in the Krasnogvardeisky District of St. Petersburg,Отдел полиции № 26 по Красногвардейскому району г. Санкт-Петербурга,59.96174,30.48647
Санкт-Петербург,Отдел полиции № 20 Выборгского район г. Санкт-Петербурга,Police Department No. 20 Vyborgsky District of St. Petersburg,Отдел полиции № 20 Выборгского район г. Санкт-Петербурга,60.04146,30.36872
Санкт-Петербург,Отдел полиции № 45 Невского района г. Санкт-Петербурга,Police Department No. 45 Nevsky District of St. Petersburg,Отдел полиции № 45 Невского района г. Санкт-Петербурга,59.84235,30.49715
Санкт-Петербург,Отдел полиции № 29 Московского района г. Санкт-Петербурга,Police Department No. 29 Moscow District of St. Petersburg,Отдел полиции № 29 Московского района г. Санкт-Петербурга,59.86036,30.31186
Санкт-Петербург,Отдел полиции № 76 Центрального района г. Санкт-Петербурга,Police Department No. 76 of the Central District of St. Petersburg,Отдел полиции № 76 Центрального района г. Санкт-Петербурга,59.93111,30.37487
Санкт-Петербург,Отдел полиции № 52 Красногвардейского района г. Санкт-Петербурга,Police Department No. 52 of the Krasnogvardeisky District of St. Petersburg,Отдел полиции № 52 Красногвардейского района г. Санкт-Петербурга,59.93166,30.4194
Санкт-Петербург,Отдел полиции № 32 Невского района г. Санкт-Петербурга,Police Department No. 32 Nevsky District of St. Petersburg,Отдел полиции № 32 Невского района г. Санкт-Петербурга,59.8559,30.47253
Санкт-Петербург,Отдел полиции № 33 Московского района г. Санкт-Петербурга,Police Department No. 33 of the Moscow District of St. Petersburg,Отдел полиции № 33 Московского района г. Санкт-Петербурга,59.8597,30.3514
Санкт-Петербург,Отдел полиции № 35 Приморского района г. Санкт-Петербурга,Police Department No. 35 Primorsky District of St. Petersburg,Отдел полиции № 35 Приморского района г. Санкт-Петербурга,59.99489,30.28418
Санкт-Петербург,Отдел полиции № 7 Фрунзенского района г. Санкт-Петербурга,Police Department No. 7 Frunzensky District of St. Petersburg,Отдел полиции № 7 Фрунзенского района г. Санкт-Петербурга,59.82654,30.41108
Санкт-Петербург,Отдел полиции № 43 Петроградского района г. Санкт-Петербурга,Police Department No. 43 Petrogradsky District of St. Petersburg,Отдел полиции № 43 Петроградского района г. Санкт-Петербурга,59.96264,30.32564
Санкт-Петербург,Отдел полиции № 42 Красносельского района г. Санкт-Петербурга,Police Department No. 42 Krasnoselsky District of St. Petersburg,Отдел полиции № 42 Красносельского района г. Санкт-Петербурга,59.84434,30.14414
Санкт-Петербург,Отдел полиции № 66 Красногвардейского района г. Санкт-Петербурга,Police Department No. 66 of the Krasnogvardeisky district of St. Petersburg,Отдел полиции № 66 Красногвардейского района г. Санкт-Петербурга,59.97714,30.42703
Санкт-Петербург,Отдел полиции № 64 Кировского района г. Санкт-Петербурга,Police Department No. 64 Kirovsky District of St. Petersburg,Отдел полиции № 64 Кировского района г. Санкт-Петербурга,59.85666,30.22979
Санкт-Петербург,Отдел полиции № 13 Красногвардейского района г. Санкт-Петербурга,Police Department No. 13 of the Krasnogvardeisky District of St. Petersburg,Отдел полиции № 13 Красногвардейского района г. Санкт-Петербурга,59.94142,30.48794
Санкт-Петербург,Отдел полиции № 16 Василеостровского района г. Санкт-Петербурга,Police Department No. 16 Vasileostrovsky District of St. Petersburg,Отдел полиции № 16 Василеостровского района г. Санкт-Петербурга,59.93303,30.27224
Санкт-Петербург,Отдел полиции № 31 Кировского района г. Санкт-Петербурга,Police Department No. 31 Kirovsky District of St. Petersburg,Отдел полиции № 31 Кировского района г. Санкт-Петербурга,59.88848,30.26436
Санкт-Петербург,Отдел полиции № 14 Фрунзенского района г. Санкт-Петербурга,Police Department No. 14 Frunzensky District of St. Petersburg,Отдел полиции № 14 Фрунзенского района г. Санкт-Петербурга,59.83935,30.38671
Санкт-Петербург,Отдел МВД по Колпинскому району г. Санкт-Петербурга,Department of the Ministry of Internal Affairs at the Kolpinsky district of St. Petersburg,Отдел МВД по Колпинскому району г. Санкт-Петербурга,59.73548,30.58887
Санкт-Петербург,Отдел полиции № 17 Калининского района г. Санкт-Петербурга,Police Department No. 17 Kalininsky District of St. Petersburg,Отдел полиции № 17 Калининского района г. Санкт-Петербурга,60.04608,30.38849
Санкт-Петербург,Отдел полиции № 2 Адмиралтейского района г. Санкт-Петербурга,Police Department No. 2 of the Admiralty District of St. Petersburg,Отдел полиции № 2 Адмиралтейского района г. Санкт-Петербурга,59.92219,30.30659
Санкт-Петербург,Отдел полиции № 82 Красносельского района г. Санкт-Петербурга,Police Department No. 82 Krasnoselsky District of St. Petersburg,Отдел полиции № 82 Красносельского района г. Санкт-Петербурга,59.85347,30.2176
Санкт-Петербург,Отдел полиции № 78 Центрального района г. Санкт-Петербурга,Police Department No. 78 of the Central District of St. Petersburg,Отдел полиции № 78 Центрального района г. Санкт-Петербурга,59.93819,30.35307
Санкт-Петербург,Отдел полиции № 59 Выборгского района г. Санкт-Петербурга,Police Department No. 59 Vyborg district of St. Petersburg,Отдел полиции № 59 Выборгского района г. Санкт-Петербурга,60.0531,30.344
Санкт-Петербург,Отдел полиции № 74 Красносельского района г. Санкт-Петербурга,Police Department No. 74 Krasnoselsky District of St. Petersburg,Отдел полиции № 74 Красносельского района г. Санкт-Петербурга,59.86502,30.18016
Санкт-Петербург,Отдел полиции № 12 Фрунзенского района г. Санкт-Петербурга,Police Department No. 12 of Frunzensky District of St. Petersburg,Отдел полиции № 12 Фрунзенского района г. Санкт-Петербурга,59.86426,30.39881
Санкт-Петербург,Отдел полиции № 25 Приморского района г. Санкт-Петербурга,Police Department No. 25 Primorsky District of St. Petersburg,Отдел полиции № 25 Приморского района г. Санкт-Петербурга,59.99029,30.20835
Санкт-Петербург,Отдел полиции № 18 Петроградского района г. Санкт-Петербурга,Police Department No. 18 Petrogradsky District of St. Petersburg,Отдел полиции № 18 Петроградского района г. Санкт-Петербурга,59.9629,30.29327
Санкт-Петербург,Отдел полиции № 86 Приморского района г. Санкт-Петербурга,Police Department No. 86 Primorsky District of St. Petersburg,Отдел полиции № 86 Приморского района г. Санкт-Петербурга,60.01035,30.2651
Краснодар,ОВД Западного округа г. Краснодара,OVD Western District of Krasnodar,ОВД Западного округа г. Краснодара,45.05317,38.98323
Краснодар,Отдел полиции (Центральный округ) УМВД по городу Краснодару,Police Department (Central District) Ministry of Internal Affairs in the city of Krasnodar,"Отдел полиции (Центральный округ) УМВД по городу Краснодару, Краснодар",45.02027,38.96859
Екатеринбург,Отдел полиции № 9 УМВД по городу Екатеринбургу,Department of Police No. 9 UMVD in the city of Yekaterinburg,"Отдел полиции № 9 УМВД по городу Екатеринбургу, Екатеринбург",56.81432,60.5832
Екатеринбург,Отдел полиции № 11 УМВД по городу Екатеринбургу,Police Department No. 11 UMVD in the city of Yekaterinburg,"Отдел полиции № 11 УМВД по городу Екатеринбургу, Екатеринбург",56.81432,60.5832
Екатеринбург,Отдел полиции № 7 УМВД по городу Екатеринбургу,Department of Police No. 7 Ministry of Internal Affairs in Ekaterinburg,"Отдел полиции № 7 УМВД по городу Екатеринбургу, Екатеринбург",56.81432,60.5832
Саратов,Отдел полиции № 1 в составе УМВД по городу Саратову (Волжский район),Police Department No. 1 as part of the Ministry of Internal Affairs in the city of Saratov (Volzhsky district),"Отдел полиции № 1 в составе УМВД по городу Саратову (Волжский район), Саратов",51.52664,46.03682
Саратов,Отдел полиции № 3 в составе УМВД по городу Саратову (Кировский район),Police Department No. 3 as part of the Ministry of Internal Affairs in the city of Saratov (Kirovsky district),"Отдел полиции № 3 в составе УМВД по городу Саратову (Кировский район), Саратов",51.54118,45.99781
Саратов,Отдел полиции № 6 в составе УМВД по городу Саратову (Фрунзенский район),Department of Police No. 6 as part of the Ministry of Internal Affairs in the city of Saratov (Frunzensky district),"Отдел полиции № 6 в составе УМВД по городу Саратову (Фрунзенский район), Саратов",51.54118,45.99781
Нижний Новгород,Отдел полиции № 5 УМВД по Нижнему Новгороду,Police Department No. 5 Ministry of Internal Affairs on Nizhny Novgorod,"Отдел полиции № 5 УМВД по Нижнему Новгороду, Нижний Новгород",56.33012,43.99134
Нижний Новгород,Отдел полиции № 2 УМВД по Нижнему Новгороду,Police Department No. 2 of the Ministry of Internal Affairs for Nizhny Novgorod,"Отдел полиции № 2 УМВД по Нижнему Новгороду, Нижний Новгород",56.3227,43.95205
Нижний Новгород,Отдел полиции № 1 УМВД по Нижнему Новгороду,Police Department No. 1 Ministry of Internal Affairs on Nizhny Novgorod,"Отдел полиции № 1 УМВД по Нижнему Новгороду, Нижний Новгород",56.23374,43.85312
Нижний Новгород,Отдел полиции № 7 УМВД по Нижнему Новгороду,Police Department No. 7 Ministry of Internal Affairs for Nizhny Novgorod,"Отдел полиции № 7 УМВД по Нижнему Новгороду, Нижний Новгород",56.29392,44.0323
Воронеж,Отдел полиции № 6 УМВД по городу Воронежу (Центральный район),Police Department No. 6 Ministry of Internal Affairs in the city of Voronezh (Central District),"Отдел полиции № 6 УМВД по городу Воронежу (Центральный район), Воронеж",51.6737,39.20625
Воронеж,Отдел полиции № 8 УМВД России по городу Воронежу (Ленинский район),Police Department No. 8 Ministry of Internal Affairs of Russia in the city of Voronezh (Leninsky district),"Отдел полиции № 8 УМВД России по городу Воронежу (Ленинский район), Воронеж",51.63583,39.23407
Калининград,Отдел МВД России по Ленинградскому району города Калининграда,Department of the Ministry of Internal Affairs of Russia in the Leningrad District of the city of Kaliningrad,"Отдел МВД России по Ленинградскому району города Калининграда, Калининград",54.71845,20.50632
Калининград,Отдел полиции № 3 УМВД по городу Калининграду,Police Department No. 3 Ministry of Internal Affairs in the city of Kaliningrad,"Отдел полиции № 3 УМВД по городу Калининграду, Калининград",55.76997,37.61325
Калининград,Отдел полиции № 2 УМВД по городу Калининграду,Police Department No. 2 Ministry of Internal Affairs in the city of Kaliningrad,"Отдел полиции № 2 УМВД по городу Калининграду, Калининград",55.76997,37.61325
Казань,Отдел полиции № 16 «Япеева» УМВД по г. Казани,"Police Department No. 16 ""Yapeeyev"" Ministry of Internal Affairs for the city of Kazan",Отдел полиции № 16 «Япеева» УМВД по г. Казани,55.79825,49.11597
Казань,Отдел полиции № 2 «Вишневский» УМВД по г. Казани,"Police Department No. 2 ""Vishnevsky"" Ministry of Internal Affairs for the city of Kazan",Отдел полиции № 2 «Вишневский» УМВД по г. Казани,55.7821,49.15589
Волгоград,Отдел полиции № 4 УМВД по г. Волгограду,Police Department No. 4 UMVD in Volgograd,Отдел полиции № 4 УМВД по г. Волгограду,48.71067,44.49359
Тюмень,Отдел полиции № 4 УМВД по г. Тюмени,Police Department No. 4 UMVD in Tyumen,Отдел полиции № 4 УМВД по г. Тюмени,57.14975,65.56628
Уфа,Отдел полиции № 6 (Октябрьский район),Police Department No. 6 (October District),"Отдел полиции № 6 (Октябрьский район), Уфа",54.75124,56.0281
Уфа,Отдел полиции № 9 (Кировский район),Police Department No. 9 (Kirovsky District),"Отдел полиции № 9 (Кировский район), Уфа",54.72396,55.9341
Уфа,Отдел полиции № 3 (Кировский район),Police Department No. 3 (Kirovsky District),"Отдел полиции № 3 (Кировский район), Уфа",54.70725,55.97587
Иваново,Отдел полиции № 1 «Ленинский»,"Police Department No. 1 ""Leninsky""","Отдел полиции № 1 «Ленинский», Иваново",55.91326,37.76768
Иваново,Отдел полиции № 2 «Октябрьский,"Police Department No. 2 ""Oktyabrsky","Отдел полиции № 2 «Октябрьский, Иваново",56.99455,40.99617
Пермь,Отдел полиции № 7 (дисл. Свердловский р-н) УМВД по г. Перми,Department of Police No. 7 (District Sverdlovsky district) UMVD in Perm,Отдел полиции № 7 (дисл. Свердловский р-н) УМВД по г. Перми,57.99903,56.24249
Пермь,Отдел полиции № 1 УМВД по городу Пензе,Police Department No. 1 Ministry of Internal Affairs in Penza,"Отдел полиции № 1 УМВД по городу Пензе, Пермь",53.20287,45.02012
Новосибирск,Отдел полиции № 1 «Центральный»,"Police Department No. 1 ""Central""","Отдел полиции № 1 «Центральный», Новосибирск",55.04404,82.92045
Новосибирск,Отдел полиции № 10 «Советский»,"Police Department No. 10 ""Soviet""","Отдел полиции № 10 «Советский», Новосибирск",54.85858,83.09814
Новосибирск,Отдел полиции № 6 «Октябрьский»,"Police Department No. 6 ""Oktyabrsky""","Отдел полиции № 6 «Октябрьский», Новосибирск",55.00933,82.95998
Оренбург,Отдел полиции № 1 МУ МВД «Оренбургское»,"Police Department No. 1 of the Ministry of Internal Affairs ""Orenburg""","Отдел полиции № 1 МУ МВД «Оренбургское», Оренбург",51.8318,55.13799
Киров,Управление МВД России по г. Кирову,Department of the Ministry of Internal Affairs of Russia in Kirov,Управление МВД России по г. Кирову,58.57633,49.62214
Ростов-на-Дону,Отдел полиции № 6 УМВД по городу Ростову-на-Дону,Police Department No. 6 Ministry of Internal Affairs in the city of Rostov-on-Don,"Отдел полиции № 6 УМВД по городу Ростову-на-Дону, Ростов-на-Дону",47.25741,39.76999
Ростов-на-Дону,Отдел полиции № 3 УМВД по городу Ростову-на-Дону,Police Department No. 3 UMVD in the city of Rostov-on-Don,"Отдел полиции № 3 УМВД по городу Ростову-на-Дону, Ростов-на-Дону",47.22495,39.71789
Иркутск,Отдел полиции № 5 УМВД по г. Иркутску,Police Department No. 5 Umvd in Irkutsk,Отдел полиции № 5 УМВД по г. Иркутску,52.29083,104.294
Псков,Отдел полиции № 1 УМВД по городу Пскову,Police Department No. 1 Ministry of Internal Affairs for the city of Pskov,"Отдел полиции № 1 УМВД по городу Пскову, Псков",57.82219,28.36455
Колпино,Отдел полиции № 55 Колпинского района г. Санкт-Петербурга,Police Department No. 55 Kolpinsky District of St. Petersburg,Отдел полиции № 55 Колпинского района г. Санкт-Петербурга,59.73548,30.58887
Великий Новгород,Управление МВД России по городу Великий Новгород,Office of the Ministry of Internal Affairs of Russia in the city Veliky Novgorod,"Управление МВД России по городу Великий Новгород, Великий Новгород",58.54443,31.30573
Сыктывкар,УМВД России по городу Сыктывкару,Ministry of Internal Affairs of Russia in the city Syktyvkar,"УМВД России по городу Сыктывкару, Сыктывкар",61.67454,50.82505
Вологда,Отдел полиции № 1 УМВД по г. Вологде,Police Department No. 1 Umvd in Vologda,Отдел полиции № 1 УМВД по г. Вологде,59.20854,39.88498
Мурманск,Отдел полиции № 1 УМВД по городу Мурманску,Police Department No. 1 Ministry of Internal Affairs in the city of Murmansk,"Отдел полиции № 1 УМВД по городу Мурманску, Мурманск",68.96289,33.0691
Рязань,Отдел полиции № 3 (по Железнодорожному району города Рязани),Police Department No. 3 (for the Railway Railway Railway),"Отдел полиции № 3 (по Железнодорожному району города Рязани), Рязань",54.62627,39.71609
Красноярск,Отдел полиции № 1 МУ МВД «Красноярское»,"Police Department No. 1 MU MVD ""Krasnoyarskoye""","Отдел полиции № 1 МУ МВД «Красноярское», Красноярск",55.76997,37.61325
Томск,Отдел полиции № 3 (по обслуживанию внутригородской территории Советский район) УМВД по городу Томску,Police Department No. 3 (for the service of the Intorodsk territory Soviet district) Ministry of Internal Affairs of the city Tomsk,"Отдел полиции № 3 (по обслуживанию внутригородской территории Советский район) УМВД по городу Томску, Томск",55.55446,37.71011
Пенза,Отдел полиции № 1 УМВД по городу Пензе,Police Department No. 1 Ministry of Internal Affairs in Penza,"Отдел полиции № 1 УМВД по городу Пензе, Пенза",53.19959,45.00121
Выборг,Управление МВД России по Выборгскому району,Office of the Ministry of Internal Affairs of Russia in Vyborg district,"Управление МВД России по Выборгскому району, Выборг",61.11519,28.85195
Брянск,Отдел полиции № 1 (Бежицкий район г. Брянска),Police Department No. 1 (Bezhitsky district of Bryansk),Отдел полиции № 1 (Бежицкий район г. Брянска),53.30853,34.3153
Брянск,УМВД России по г. Брянску,Ministry of Internal Affairs of Russia in Bryansk,УМВД России по г. Брянску,53.26081,34.34316
Челябинск,Отдел полиции № 1 (Ленинский район) УМВД по городу Челябинску,Police Department No. 1 (Leninsky District) Ministry of Internal Affairs in the city of Chelyabinsk,"Отдел полиции № 1 (Ленинский район) УМВД по городу Челябинску, Челябинск",55.19416,61.34033
Челябинск,Отдел полиции № 5 (Центральный район) УМВД по городу Челябинску,Police Department No. 5 (Central District) Ministry of Internal Affairs in the city of Chelyabinsk,"Отдел полиции № 5 (Центральный район) УМВД по городу Челябинску, Челябинск",55.19416,61.34033
Смоленск,Отдел полиции № 1 УМВД по городу Смоленску,Police Department No. 1 Ministry of Internal Affairs in the city of Smolensk,"Отдел полиции № 1 УМВД по городу Смоленску, Смоленск",54.77323,32.0477
Владивосток,УМВД по городу Владивостоку (отдел полиции № 1),UMVD in the city of Vladivostok (police department number 1),"УМВД по городу Владивостоку (отдел полиции № 1), Владивосток",43.15522,131.9087
Тольятти,Отдел полиции № 24,Police Department No. 24,"Отдел полиции № 24, Тольятти",53.53228,49.41202
Чебоксары,Отдел полиции № 1 УМВД по г. Чебоксары,Police Department No. 1 Umvd in Cheboksary,Отдел полиции № 1 УМВД по г. Чебоксары,56.12688,47.2455
Пущино,Отдел полиции «Пущинский»,"Police Department ""Pushchinsky""","Отдел полиции «Пущинский», Пущино",54.8275,37.62024
Ульяновск,Отдел МВД по Ленинскому району,Department of the Ministry of Internal Affairs for Leninsky District,"Отдел МВД по Ленинскому району, Ульяновск",54.32838,48.39287
Коломна,УМВД России по Коломенскому городскому округу,Ministry of Internal Affairs of Russia in Kolomna City District,"УМВД России по Коломенскому городскому округу, Коломна",55.07339,38.78404
Самара,Отдел полиции № 4,Police Department number 4,"Отдел полиции № 4, Самара",53.21078,50.1445
Самара,Отдел полиции № 5,Police Department No. 5,"Отдел полиции № 5, Самара",53.20144,50.18793
Тула,Отдел полиции «Центральный» УМВД по г. Туле,"Police Department ""Central"" Ministry of Internal Affairs in Tula",Отдел полиции «Центральный» УМВД по г. Туле,54.18882,37.62594
Прохладный,Межмуниципальный отдел МВД России «Прохладненский»,"Intermunicipal department of the Ministry of Internal Affairs of Russia ""Prokhaladnsky""","Межмуниципальный отдел МВД России «Прохладненский», Прохладный",55.56464,37.46548
Фрязино,Отдел полиции по г. о. Фрязино МУ МВД «Щелковское»,"Police department for city oh. Fryazino MU MVD ""Schelkovskaya""",Отдел полиции по г. о. Фрязино МУ МВД «Щелковское»,55.95319,38.04048
Нальчик,Отдел полиции № 2 УМВД по г. Нальчик,Police Department No. 2 Umvd in Nalchik,Отдел полиции № 2 УМВД по г. Нальчик,43.50574,43.63972
Курск,Отдел полиции № 1,Police Department No. 1,"Отдел полиции № 1, Курск",51.72317,36.18753
Кострома,УМВД России по городу Костроме,Ministry of Internal Affairs of Russia in the city of Kostroma,"УМВД России по городу Костроме, Кострома",57.74745,41.01149
Евпатория,Отдел МВД по г. Евпатории,Department of the Ministry of Internal Affairs in Evpatoria,Отдел МВД по г. Евпатории,55.76474,37.61154
Железноводск,Отдел МВД по г. Железноводску,Department of the Ministry of Internal Affairs in Zheleznovodsk,Отдел МВД по г. Железноводску,44.14848,43.00823
Ярославль,Отдел МВД России по Кировскому городскому району,Department of the Ministry of Internal Affairs of Russia in the Kirov City District,"Отдел МВД России по Кировскому городскому району, Ярославль",57.62253,39.88211
Дубна,Отдел МВД по г. о. Дубна,Department of the Ministry of Internal Affairs in the city of about. Dubna,Отдел МВД по г. о. Дубна,56.74933,37.20401
Москва,ОМВД России по Даниловскому району г. Москвы,OMVD of Russia in the Danilovsky district of Moscow,ОМВД России по Даниловскому району г. Москвы,55.7044,37.65522
Москва,Отдел МВД России по Нижегородскому району,Department of the Ministry of Internal Affairs of Russia in Nizhny Novgorod District,"Отдел МВД России по Нижегородскому району, Москва",55.73482,37.68153
Москва,ОМВД Алексеевский,OMVD Alekseevsky,"ОМВД Алексеевский, Москва",55.80824,37.64391
Москва,Отдел МВД России по району Дорогомилово г. Москвы,Department of the Ministry of Internal Affairs of Russia in the Dorogomilovo district of Moscow,Отдел МВД России по району Дорогомилово г. Москвы,55.7429,37.5288
Москва,ОМВД Марьина Роща,OMVD Maryina Rosch,"ОМВД Марьина Роща, Москва",55.78899,37.61786
Москва,ОМВД России по району Зюзино г. Москвы,OMVD of Russia in the area of ​​Zyuzino Moscow,ОМВД России по району Зюзино г. Москвы,55.63988,37.59078
Москва,Отдел МВД по Гагаринскому району,Department of the Ministry of Internal Affairs for the Gagarin district,"Отдел МВД по Гагаринскому району, Москва",55.6973,37.55717
Москва,ОМВД России по Войковскому району,OMVD of Russia in the Voorovsky District,"ОМВД России по Войковскому району, Москва",55.82154,37.50198
Москва,ОМВД России по району Савеловский г. Москвы,OMVD of Russia in the district of Savelovsky Moscow,ОМВД России по району Савеловский г. Москвы,55.79352,37.57493
Москва,Отдел МВД России по району Печатники,Department of the Ministry of Internal Affairs of Russia in the area of ​​Printedry,"Отдел МВД России по району Печатники, Москва",55.68012,37.70107
Москва,Отдел МВД России по району Измайлово Восточное г. Москвы,Department of the Ministry of Internal Affairs of Russia in the area of ​​Izmailovo Eastern Moscow,Отдел МВД России по району Измайлово Восточное г. Москвы,55.79193,37.81581
Москва,ОМВД России по району Проспект Вернадского г. Москвы,OMVD of Russia in the district Prospekt Vernadsky Moscow,ОМВД России по району Проспект Вернадского г. Москвы,55.67482,37.49531
Москва,ОМВД России по району Филевский парк г. Москвы,OMVD of Russia in the district Filevsky Park of Moscow,ОМВД России по району Филевский парк г. Москвы,55.74642,37.50365
Москва,Отдел МВД России по району Марьино,Department of the Ministry of Internal Affairs of Russia in the area of ​​Marino,"Отдел МВД России по району Марьино, Москва",55.66987,37.75103
Санкт-Петербург,Отдел МВД по Пушкинскому району г. Санкт-Петербурга,Department of the Ministry of Internal Affairs for Pushkinsky District of St. Petersburg,Отдел МВД по Пушкинскому району г. Санкт-Петербурга,59.73695,30.40553
Санкт-Петербург,Отдел полиции № 4 Пушкинского района г. Санкт-Петербурга,Police Department No. 4 Pushkinsky District of St. Petersburg,Отдел полиции № 4 Пушкинского района г. Санкт-Петербурга,59.73695,30.40553
Санкт-Петербург,Отдел МВД по Курортному району г. Санкт-Петербурга,Department of the Ministry of Internal Affairs in the Resort District of St. Petersburg,Отдел МВД по Курортному району г. Санкт-Петербурга,60.18823,29.80873
Санкт-Петербург,Отдел полиции № 39 Колпинского района г. Санкт-Петербурга,Police Department No. 39 of the Kolpinsky district of St. Petersburg,Отдел полиции № 39 Колпинского района г. Санкт-Петербурга,59.81182,30.57789
Санкт-Петербург,Отдел МВД по Петродворцовому району г. Санкт-Петербурга,Department of the Ministry of Internal Affairs for the Petrodvortsum District of St. Petersburg,Отдел МВД по Петродворцовому району г. Санкт-Петербурга,59.87766,29.85881
Санкт-Петербург,Отдел полиции № 55 Колпинского района г. Санкт-Петербурга,Police Department No. 55 Kolpinsky District of St. Petersburg,Отдел полиции № 55 Колпинского района г. Санкт-Петербурга,59.73548,30.58887
Санкт-Петербург,Отдел МВД по Кронштадтскому району г. Санкт-Петербурга,Department of the Ministry of Internal Affairs for the Kronstadt District of St. Petersburg,Отдел МВД по Кронштадтскому району г. Санкт-Петербурга,59.99433,29.76441
Екатеринбург,Отдел полиции № 5 УМВД по городу Екатеринбургу,Police Department No. 5 Ministry of Internal Affairs in Ekaterinburg,"Отдел полиции № 5 УМВД по городу Екатеринбургу, Екатеринбург",56.81432,60.5832
Пушкин,Отдел МВД по Пушкинскому району г. Санкт-Петербурга,Department of the Ministry of Internal Affairs for Pushkinsky District of St. Petersburg,Отдел МВД по Пушкинскому району г. Санкт-Петербурга,59.73695,30.40553
Иркутск,Отдел полиции № 7 УМВД по г. Иркутску,Police Department No. 7 UMVD in Irkutsk,Отдел полиции № 7 УМВД по г. Иркутску,52.2749,104.3199
Омск,Отдел полиции № 10 УМВД по г. Омску,Police Department No. 10 Umvd in Omsk,Отдел полиции № 10 УМВД по г. Омску,54.98684,73.37965
Архангельск,Отдел полиции № 3 (по обслуживанию Ломоносовского округа г. Архангельска),Police Department No. 3 (for servicing the Lomonosovsky District of Arkhangelsk),Отдел полиции № 3 (по обслуживанию Ломоносовского округа г. Архангельска),64.53122181,40.55712398
Кемерово,Отдел полиции «Центральный» УМВД по г. Кемерово,"Police Department ""Central"" Ministry of Internal Affairs for the city of Kemerovo",Отдел полиции «Центральный» УМВД по г. Кемерово,55.36078,86.07205
Астрахань,УМВД России по г. Астрахани,Ministry of Internal Affairs of Russia in Astrakhan,УМВД России по г. Астрахани,46.35335,48.0386
Курган,Отдел полиции № 1 УМВД по г. Кургану,Police Department No. 1 Umvd for the city of Kurgan,Отдел полиции № 1 УМВД по г. Кургану,55.44414,65.35869
Тверь,Отдел полиции Центральный УМВД по городу Твери,Police Department Central Ministry of Internal Affairs in Tver City,"Отдел полиции Центральный УМВД по городу Твери, Тверь",56.84643,35.90852
Псков,Отдел полиции № 2 УМВД по городу Пскову,Police Department No. 2 UMVD in the city of Pskov,"Отдел полиции № 2 УМВД по городу Пскову, Псков",57.82219,28.36455
Петергоф,Отдел МВД по Петродворцовому району г. Санкт-Петербурга,Department of the Ministry of Internal Affairs for the Petrodvortsum District of St. Petersburg,Отдел МВД по Петродворцовому району г. Санкт-Петербурга,59.87766,29.85881
Туапсе,Отдел МВД по Туапсинскому району,Department of the Ministry of Internal Affairs in the Tuapse district,"Отдел МВД по Туапсинскому району, Туапсе",44.09892,39.07499
Москва,Ломоносовский,Lomonosovsky,"Ломоносовский, Москва",55.6955,37.55647
Москва,ОМВД России по району Якиманка г. Москвы,OMVD of Russia in the area of ​​Yakimanka Moscow,ОМВД России по району Якиманка г. Москвы,55.73641,37.62014
Москва,ОМВД Ростокино,OMVD Rostokino,"ОМВД Ростокино, Москва",55.83776,37.66508
Москва,ОМВД России по району Сокол г. Москвы,OMVD of Russia in the area of ​​Sokol Moscow,ОМВД России по району Сокол г. Москвы,55.80043,37.51794
Москва,ОМВД России по району Хорошевский г. Москвы,OMVD of Russia in the district of Khoroshevsky Moscow,ОМВД России по району Хорошевский г. Москвы,55.77941,37.53734
Москва,Отдел МВД России по Рязанскому району,Department of the Ministry of Internal Affairs of Russia for Ryazan District,"Отдел МВД России по Рязанскому району, Москва",55.7165,37.74447
Москва,МО МВД России «Троицкий» г. Москвы,"MO Ministry of Internal Affairs of Russia ""Troitsky"" of Moscow",МО МВД России «Троицкий» г. Москвы,55.76474,37.61154
Москва,ОМВД России по району Соколиная Гора г. Москвы,OMVD of Russia in the area of ​​Sokolina Mountain in Moscow,ОМВД России по району Соколиная Гора г. Москвы,55.78532,37.7331
Москва,Хорошево-Мневники (новое здание),Honest Museum (New Building),"Хорошево-Мневники (новое здание), Москва",55.77772,37.50295
Москва,ОМВД России по району Чертаново Южное г. Москвы,OMVD of Russia in the area of ​​Chertanovo South Moscow,ОМВД России по району Чертаново Южное г. Москвы,55.60066,37.59021
Москва,ОМВД России по району Орехово-Борисово Северное г. Москвы,OMVD of Russia in the area of ​​Orekhovo-Borisovo North Moscow,ОМВД России по району Орехово-Борисово Северное г. Москвы,55.62586,37.72465
Москва,Отдел МВД по Ступинскому району,Department of the Ministry of Internal Affairs in the Stupinsky district,"Отдел МВД по Ступинскому району, Москва",55.76474,37.61154
Москва,Отдел МВД России по Южнопортовому району,Department of the Ministry of Internal Affairs of Russia in the South-Purpose District,"Отдел МВД России по Южнопортовому району, Москва",55.70394,37.67583
Санкт-Петербург,Отдел полиции № 3 Калининского района г. Санкт-Петербурга,Police Department No. 3 Kalininsky District of St. Petersburg,Отдел полиции № 3 Калининского района г. Санкт-Петербурга,60.01907,30.41495
Санкт-Петербург,Отдел полиции № 21 Калининского района г. Санкт-Петербурга,Police Department No. 21 Kalininsky District of St. Petersburg,Отдел полиции № 21 Калининского района г. Санкт-Петербурга,59.98465,30.4
Санкт-Петербург,Отдел полиции № 6 Калининского района г. Санкт-Петербурга,Police Department No. 6 Kalininsky District of St. Petersburg,Отдел полиции № 6 Калининского района г. Санкт-Петербурга,60.019023,30.395615
Санкт-Петербург,Отдел полиции № 5 Фрунзенского района г. Санкт-Петербурга,Police Department No. 5 of Frunzensky District of St. Petersburg,Отдел полиции № 5 Фрунзенского района г. Санкт-Петербурга,59.8739,30.38392
Екатеринбург,Отдел полиции № 1 УМВД по городу Екатеринбургу,Department of Police No. 1 Ministry of Internal Affairs in Ekaterinburg,"Отдел полиции № 1 УМВД по городу Екатеринбургу, Екатеринбург",56.81432,60.5832
Екатеринбург,Отдел полиции № 12 УМВД по городу Екатеринбургу,Police Department No. 12 UMVD in the city of Yekaterinburg,"Отдел полиции № 12 УМВД по городу Екатеринбургу, Екатеринбург",56.78036,60.60742
Екатеринбург,Отдел полиции № 3 УМВД по городу Екатеринбургу,Department of Police No. 3 UMVD in the city of Yekaterinburg,"Отдел полиции № 3 УМВД по городу Екатеринбургу, Екатеринбург",56.81432,60.5832
Иваново,Отдел полиции № 4 «Фрунзенский»,"Police Department No. 4 ""Frunzensky""","Отдел полиции № 4 «Фрунзенский», Иваново",55.47065,37.57259
Пермь,Отдел полиции № 6 (дисл. Ленинский р-н) УМВД по г. Перми,Police Department No. 6 (Leninsky District) Umvd in Perm,Отдел полиции № 6 (дисл. Ленинский р-н) УМВД по г. Перми,58.01358,56.25538
Красноярск,Отдел полиции № 5 МУ МВД «Красноярское»,"Police Department No. 5 MU MVD ""Krasnoyarskoye""","Отдел полиции № 5 МУ МВД «Красноярское», Красноярск",55.76997,37.61325
Красноярск,Отдел полиции № 7 МУ МВД «Красноярское»,"Police Department No. 7 MU MVD ""Krasnoyarskoye""","Отдел полиции № 7 МУ МВД «Красноярское», Красноярск",55.76997,37.61325
Хабаровск,Отдел полиции № 4 УМВД по г. Хабаровску,Police Department No. 4 Umvd in Khabarovsk,Отдел полиции № 4 УМВД по г. Хабаровску,48.48858,135.0752
Химки,Линейный отдел МВД России на станции Москва-Ленинградская,Linear department of the Ministry of Internal Affairs of Russia at Moscow-Leningrad Station,"Линейный отдел МВД России на станции Москва-Ленинградская, Химки",55.43332,37.56479
Новочеркасск,Отдел полиции № 1 МУ МВД «Новочеркасское»,Police Department No. 1 MU MVD Novocherkasskoe,"Отдел полиции № 1 МУ МВД «Новочеркасское», Новочеркасск",55.76997,37.61325
Новороссийск,Отдел полиции (Центральный район) УМВД по г. Новороссийску,Police Department (Central District) Ministry of Internal Affairs for the city of Novorossiysk,Отдел полиции (Центральный район) УМВД по г. Новороссийску,44.71539,37.77495
Ялта,Отдел полиции № 3 «Массандровский» УМВД по г. Ялта,"Police Department No. 3 ""Massandrovsky"" Ministry of Internal Affairs in Yalta",Отдел полиции № 3 «Массандровский» УМВД по г. Ялта,55.31101,37.52129
Архангельск,Отдел полиции № 4 (по обслуживанию Октябрьского округа г. Архангельска),Department of Police No. 4 (for the maintenance of the Oktyabrsky District of Arkhangelsk),Отдел полиции № 4 (по обслуживанию Октябрьского округа г. Архангельска),64.53815,40.51204
Москва,ОМВД по району Дмитровский,OMVD in the district Dmitrovsky,"ОМВД по району Дмитровский, Москва",55.88543,37.53808
Москва,Отдел МВД России по Косино-Ухтомскому району г. Москвы,Department of the Ministry of Internal Affairs of Russia in the Koshino-Ukhtsky district of Moscow,Отдел МВД России по Косино-Ухтомскому району г. Москвы,55.71079,37.85208
Москва,Отдел МВД России по району Митино г. Москвы,Department of the Ministry of Internal Affairs of Russia in the district of Mitino city of Moscow,Отдел МВД России по району Митино г. Москвы,55.85803,37.3426
Москва,ОМВД России по району Коньково г. Москвы,OMVD of Russia in the area of ​​Konkovo ​​Moscow,ОМВД России по району Коньково г. Москвы,55.6403,37.5181
Москва,Отдел МВД России по району Вешняки г. Москвы,Department of the Ministry of Internal Affairs of Russia in the district of the village of Moscow,Отдел МВД России по району Вешняки г. Москвы,55.72139,37.80952
Москва,Отдел МВД России по району Гольяново г. Москвы,"Department of the Ministry of Internal Affairs of Russia in the district of Goljanovo, Moscow",Отдел МВД России по району Гольяново г. Москвы,55.81642,37.79605
Москва,ОМВД России по району Бутово Северное г. Москвы,OMVD of Russia in the district of Butovo North Moscow,ОМВД России по району Бутово Северное г. Москвы,55.57633,37.57528
Москва,3-й отдел полиции УВД на Московском метрополитене,3rd police department of the Department of Internal Affairs at the Moscow Metropolitan,"3-й отдел полиции УВД на Московском метрополитене, Москва",55.74091,37.61751
Москва,МО МВД России «Коммунарский» г. Москвы,"MO Ministry of Internal Affairs of Russia ""Communarsky"" Moscow",МО МВД России «Коммунарский» г. Москвы,55.54227,37.49411
Москва,Отдел полиции № 33 Московского района г. Санкт-Петербурга,Police Department No. 33 of the Moscow District of St. Petersburg,Отдел полиции № 33 Московского района г. Санкт-Петербурга,59.8597,30.3514
Москва,ОМВД России по району Молжаниновский г. Москвы,OMVD of Russia in the district of Muszhaninovsky Moscow,ОМВД России по району Молжаниновский г. Москвы,55.94819,37.34811
Москва,ОМВД России по Левобережному району г. Москвы,OMVD of Russia in the left-bank district of Moscow,ОМВД России по Левобережному району г. Москвы,55.86873,37.47454
Москва,ОМВД России по району Раменки г. Москвы,OMVD of Russia in the Ramenki district of Moscow,ОМВД России по району Раменки г. Москвы,55.69559,37.50795
Москва,Отдел МВД России по Можайскому району г. Москвы,Department of the Ministry of Internal Affairs of Russia in Mozhaisk district of Moscow,Отдел МВД России по Можайскому району г. Москвы,55.71988,37.44572
Москва,ОМВД России по районам Силино и Старое Крюково г. Москвы,OMVD of Russia in the areas of Silino and the old Kryukovo of Moscow,ОМВД России по районам Силино и Старое Крюково г. Москвы,55.97927,37.17867
Москва,МО МВД России «Московский» г. Москвы,"MO Ministry of Internal Affairs of Russia ""Moscow"" of Moscow",МО МВД России «Московский» г. Москвы,55.64386,37.40979
Москва,Отдел МВД России по району Богородское г. Москвы,Department of the Ministry of Internal Affairs of Russia in the District of the Bogorodskoye Moscow,Отдел МВД России по району Богородское г. Москвы,55.81447,37.72681
Санкт-Петербург,Отдел полиции № 36 Выборгского района г. Санкт-Петербурга,Department of Police No. 36 of the Vyborg district of St. Petersburg,Отдел полиции № 36 Выборгского района г. Санкт-Петербурга,60.02671,30.32713
Санкт-Петербург,Отдел полиции № 46 Петродворцовому району г. Санкт-Петербурга,Police Department No. 46 Petrodvortsovaya District of St. Petersburg,Отдел полиции № 46 Петродворцовому району г. Санкт-Петербурга,59.84803,30.03598
Санкт-Петербург,12 отдел полиции по Фрунзенскому району Санкт-Петербурга,12 Police Department for Frunzen District St. Petersburg,"12 отдел полиции по Фрунзенскому району Санкт-Петербурга, Санкт-Петербург",59.86426,30.39881
Санкт-Петербург,Отдел полиции № 10 Невского района г. Санкт-Петербурга,Police Department No. 10 Nevsky District of St. Petersburg,Отдел полиции № 10 Невского района г. Санкт-Петербурга,59.88762,30.41984
Санкт-Петербург,Отдел полиции № 37 Василеостровского района г. Санкт-Петербурга,Police Department No. 37 Vasileostrovsky District of St. Petersburg,Отдел полиции № 37 Василеостровского района г. Санкт-Петербурга,59.95815,30.22314
Санкт-Петербург,Управление МВД России по Гатчинскому району,Office of the Ministry of Internal Affairs of Russia in Gatchina District,"Управление МВД России по Гатчинскому району, Санкт-Петербург",59.56607,30.12028
Санкт-Петербург,УМВД по Фрунзенскому району г. Санкт-Петербурга,UMVD in Frunzen district of St. Petersburg,УМВД по Фрунзенскому району г. Санкт-Петербурга,59.90648,30.34933
Санкт-Петербург,Отдел полиции № 24 Невского района г. Санкт-Петербурга,Police Department No. 24 Nevsky District of St. Petersburg,Отдел полиции № 24 Невского района г. Санкт-Петербурга,59.88202,30.48488
Санкт-Петербург,Отдел МВД по Лодейнопольскому району Ленинградской области,Department of the Ministry of Internal Affairs in Lodejornopol district of the Leningrad Region,"Отдел МВД по Лодейнопольскому району Ленинградской области, Санкт-Петербург",60.735,33.52464
Санкт-Петербург,Отдел полиции № 23 Невского района г. Санкт-Петербурга,Police Department No. 23 Nevsky District of St. Petersburg,Отдел полиции № 23 Невского района г. Санкт-Петербурга,59.91258,30.49932
Санкт-Петербург,Отдел полиции № 60 Василеостровского района г. Санкт-Петербурга,Police Department No. 60 Vasileostrovsky District of St. Petersburg,Отдел полиции № 60 Василеостровского района г. Санкт-Петербурга,59.95325,30.25578
Нижний Новгород,Отдел полиции № 8 УМВД по Нижнему Новгороду,Police Department No. 8 Ministry of Internal Affairs for Nizhny Novgorod,"Отдел полиции № 8 УМВД по Нижнему Новгороду, Нижний Новгород",56.34942,43.87351
Нижний Новгород,Отдел полиции № 4 УМВД по Нижнему Новгороду,Police Department No. 4 UMVD on Nizhny Novgorod,"Отдел полиции № 4 УМВД по Нижнему Новгороду, Нижний Новгород",56.33422,43.88127
Казань,Отдел полиции № 8 «Горки» УМВД по г Казани,"Police Department No. 8 ""Gorki"" Ministry of Internal Affairs in Kazan","Отдел полиции № 8 «Горки» УМВД по г Казани, Казань",55.76959,49.14036
Казань,Отдел полиции № 5 «Московский» УМВД по г. Казани,"Police Department No. 5 ""Moscow"" Ministry of Internal Affairs for the city of Kazan",Отдел полиции № 5 «Московский» УМВД по г. Казани,55.82576,49.05313
Казань,Отдел полиции № 3 «Зареченский» УМВД по г. Казани,"Police Department No. 3 ""Zarechensky"" Ministry of Internal Affairs for the city of Kazan",Отдел полиции № 3 «Зареченский» УМВД по г. Казани,55.81785,49.05537
Самара,Отдел полиции № 1,Police Department No. 1,"Отдел полиции № 1, Самара",53.23375,50.24503
Самара,Отдел полиции № 7,Police Department number 7,"Отдел полиции № 7, Самара",53.10738,50.08174
Новосибирск,Отдел полиции № 4 «Калининский»,"Police Department No. 4 ""Kalininsky""","Отдел полиции № 4 «Калининский», Новосибирск",55.08318,82.96524
Челябинск,Отдел полиции № 3 (Советский район) УМВД по городу Челябинску,Police Department No. 3 (Soviet District) Ministry of Internal Affairs in the city of Chelyabinsk,"Отдел полиции № 3 (Советский район) УМВД по городу Челябинску, Челябинск",55.55446,37.71011
Челябинск,Отдел полиции № 6 (Калининский район) УМВД по городу Челябинску,Police Department No. 6 (Kalininsky District) Ministry of Internal Affairs in the city of Chelyabinsk,"Отдел полиции № 6 (Калининский район) УМВД по городу Челябинску, Челябинск",55.18504,61.42798
Архангельск,УМВД России по городу Архангельску,Ministry of Internal Affairs of Russia in the city of Arkhangelsk,"УМВД России по городу Архангельску, Архангельск",64.55662,40.5287
Уфа,Отдел полиции № 7 (Советский район),Police Department No. 7 (Soviet District),"Отдел полиции № 7 (Советский район), Уфа",54.73831,55.98556
Омск,Отдел полиции № 6 УМВД по г. Омску,Police Department No. 6 UMVD in Omsk,Отдел полиции № 6 УМВД по г. Омску,54.95899,73.40957
Саратов,Отдел полиции № 4 в составе УМВД по городу Саратову (Ленинский район),Police Department No. 4 in the Ministry of Internal Affairs of the city of Saratov (Leninsky district),"Отдел полиции № 4 в составе УМВД по городу Саратову (Ленинский район), Саратов",51.583303,45.97758
Калуга,УМВД России по г. Калуге,Ministry of Internal Affairs of Russia in Kaluga,УМВД России по г. Калуге,54.535281,36.255576
Сыктывкар,Отдел полиции № 1 в составе УМВД по г. Сыктывкару,Police Department No. 1 as part of the Ministry of Internal Affairs in Syktyvkar,Отдел полиции № 1 в составе УМВД по г. Сыктывкару,61.692959,50.807771
Барнаул,Отдел полиции № 1 УМВД по г. Барнаулу,Police Department No. 1 Umvd in Barnaul,Отдел полиции № 1 УМВД по г. Барнаулу,53.356361,83.767235
Барнаул,Отдел полиции № 4 УМВД по г. Барнаулу,Police Department No. 4 Umvd in Barnaulu,Отдел полиции № 4 УМВД по г. Барнаулу,53.356361,83.767235
Симферополь,Отдел полиции № 3 «Центральный» УМВД по г. Симферополю,"Police Department No. 3 ""Central"" Ministry of Internal Affairs for Simferopol",Отдел полиции № 3 «Центральный» УМВД по г. Симферополю,53.258513,83.695434
Екатеринбург,Отдел полиции № 6 УМВД по городу Екатеринбургу,Police Department No. 6 Ministry of Internal Affairs in Ekaterinburg,"Отдел полиции № 6 УМВД по городу Екатеринбургу, Екатеринбург",56.78727,60.781983
Сочи,Отдел полиции (Центрального района) УМВД по г. Сочи,Police Department (Central District) Ministry of Internal Affairs in Sochi,Отдел полиции (Центрального района) УМВД по г. Сочи,43.594107,39.728868
Магнитогорск,Отдел полиции № 10 (Орджоникидзевский П) УМВД по г. Магнитогорску,Police Department No. 10 (Ordzhonikidzevsky P) Ministry of Internal Affairs for Magnitogorsk,Отдел полиции № 10 (Орджоникидзевский П) УМВД по г. Магнитогорску,53.369879,58.956829
Магнитогорск,Отдел полиции № 8 (Ленинский) УМВД по г. Магнитогорску,Police Department No. 8 (Leninsky) Ministry of Internal Affairs in Magnitogorsk,Отдел полиции № 8 (Ленинский) УМВД по г. Магнитогорску,53.433422,58.989397
Магнитогорск,Отдел полиции № 9 (Правобережный) УМВД по г. Магнитогорску,Police Department No. 9 (right-bank) Ministry of Internal Affairs in Magnitogorsk,Отдел полиции № 9 (Правобережный) УМВД по г. Магнитогорску,53.400158,58.96094
Набережные Челны,Отдел полиции № 3 «Центральный» УМВД по г. Набережные Челны,"Police Department No. 3 ""Central"" Ministry of Internal Affairs for the city of Naberezhnye Chelny",Отдел полиции № 3 «Центральный» УМВД по г. Набережные Челны,55.747511,52.389934
Ставрополь,Отдел полиции № 1 УМВД по г. Ставрополю,Police Department No. 1 UMVD in Stavropol,Отдел полиции № 1 УМВД по г. Ставрополю,45.03499,41.96587
Серпухов,Отдел полиции по Серпуховскому м. р.,Police department in Serpukhovsky m. R.,"Отдел полиции по Серпуховскому м. р., Серпухов",54.91134391,37.41596674
Южно-Сахалинск,УМВД по городу Южно-Сахалинску,UMVD in the city of Yuzhno-Sakhalinsk,"УМВД по городу Южно-Сахалинску, Южно-Сахалинск",46.960558,142.730177
Томск,Отдел МВД по Томскому району,Department of the Ministry of Internal Affairs at Tomsk District,"Отдел МВД по Томскому району, Томск",56.522132,85.066892
Лодейное Поле,Отдел МВД по Лодейнопольскому району Ленинградской области,Department of the Ministry of Internal Affairs in Lodejornopol district of the Leningrad Region,"Отдел МВД по Лодейнопольскому району Ленинградской области, Лодейное Поле",60.732299,33.554142
Петрозаводск,УМВД России по городу Петрозаводску,Ministry of Internal Affairs of Russia in the city of Petrozavodsk,"УМВД России по городу Петрозаводску, Петрозаводск",61.762553,34.310982
Одинцово,Отдел полиции № 1 МУ МВД «Одинцовское»,"Police Department No. 1 MU MVD ""Odintsovskoye""","Отдел полиции № 1 МУ МВД «Одинцовское», Одинцово",55.6701077,37.26527748
Подольск,Отдел полиции № 3 УМВД по городскому округу Подольск,Police Department No. 3 Ministry of Internal Affairs for Urban District Podolsk,"Отдел полиции № 3 УМВД по городскому округу Подольск, Подольск",55.42592269,37.52632115
Москва,Отдел МВД России по району Выхино г. Москвы,Department of the Ministry of Internal Affairs of Russia in the district of Vykhino city of Moscow,Отдел МВД России по району Выхино г. Москвы,55.705627,37.807685
Москва,ОМВД Алтуфьевский,OMVD Altufyevsky,"ОМВД Алтуфьевский, Москва",55.889507,37.585362
Мегион,Отдел МВД по городу Мегиону,Department of the Ministry of Internal Affairs in the city of Megion,"Отдел МВД по городу Мегиону, Мегион",61.028188,76.110982
Санкт-Петербург,Отдел полиции № 81 Курортного района г. Санкт-Петербурга,Police Department No. 81 Resort District of St. Petersburg,Отдел полиции № 81 Курортного района г. Санкт-Петербурга,60.193829,29.704486
Санкт-Петербург,Отдел полиции № 19 Выборгского района г. Санкт-Петербурга,Police Department No. 19 Vyborg district of St. Petersburg,Отдел полиции № 19 Выборгского района г. Санкт-Петербурга,60.000662,30.332515
Москва,ОМВД России по району Беговой,OMVD of Russia in the area of ​​the running,"ОМВД России по району Беговой, Москва",55.780864,37.567072
Москва,ЗАО,Company,"ЗАО, Москва",55.724046,37.481141
Ростов-на-Дону,Отдел полиции № 4 УМВД по городу Ростову-на-Дону,Police Department No. 4 Ministry of Internal Affairs in the city of Rostov-on-Don,"Отдел полиции № 4 УМВД по городу Ростову-на-Дону, Ростов-на-Дону",47.220843,39.693271
Мурино,Отделение полиции № 87 Всеволожского района Ленинградской области,Department of Police No. 87 of the Vsevolozhsky district of the Leningrad Region,"Отделение полиции № 87 Всеволожского района Ленинградской области, Мурино",60.069983,30.427351
Истра,Отдел МВД по Истринскому району,Department of the Ministry of Internal Affairs in the Istra district,"Отдел МВД по Истринскому району, Истра",55.914663,36.856209
Лыткарино,Отдел полиции по городскому округу Лыткарино МУ МВД «Люберецкое»,"Police Department for the Urban District of Lytkarino MU MVD ""Lyubertsy""","Отдел полиции по городскому округу Лыткарино МУ МВД «Люберецкое», Лыткарино",55.57410901,37.90191358
Переславль-Залесский,Отдел МВД России по городскому округу город Переславль-Залесский,Department of the Ministry of Internal Affairs of Russia in the urban district Pereslavl-Zalessky,"Отдел МВД России по городскому округу город Переславль-Залесский, Переславль-Залесский",56.739624,38.853019
Якутск,Отдел полиции № 2 МУ МВД России «Якутское»,"Police Department No. 2 of the Ministry of Internal Affairs of Russia ""Yakutskoe""","Отдел полиции № 2 МУ МВД России «Якутское», Якутск",62.03280075,129.721815
Арск,Отдел МВД по Арскому району,Department of the Ministry of Internal Affairs in the ARC District,"Отдел МВД по Арскому району, Арск",56.09017552,49.8744429
Таруса,ОВД по Тарусскому району,ATS on the Troots district,"ОВД по Тарусскому району, Таруса",54.727837,37.180122
Москва,Отдел полиции Ильинский УМВД по Красногорскому району,NA,"Отдел полиции Ильинский УМВД по Красногорскому району, Москва",NA,NA
Казань,Отдел полиции № 1 «Авиастроительный» УМВД по г. Казани,NA,Отдел полиции № 1 «Авиастроительный» УМВД по г. Казани,NA,NA
Ставрополь,Отдел полиции № 2 УМВД по г. Ставрополю,NA,Отдел полиции № 2 УМВД по г. Ставрополю,NA,NA
Туймазы,Отдел МВД по Туймазинскому району,NA,"Отдел МВД по Туймазинскому району, Туймазы",NA,NA
Тамбов,Отдел полиции № 1 УМВД по г. Тамбову,NA,Отдел полиции № 1 УМВД по г. Тамбову,NA,NA
Ярославль,Управление МВД России по Ярославской области,NA,"Управление МВД России по Ярославской области, Ярославль",NA,NA
