lon,lat,type,loctype,address,north,south,east,west,city,district,location
37.657535,55.771981,establishment,rooftop,"novoryazanskaya ulitsa, 10, moskva, russia, 107078",55.7734335802915,55.7707356197085,37.6588572302915,37.6561592697085,Москва,Отдел МВД России по району Выхино г. Москвы,"Отдел МВД России по району Выхино г. Москвы, Москва"
37.43582,55.839276,establishment,rooftop,"skhodnenskaya ulitsa, 7, moskva, russia, 125363",55.8406303802915,55.8379324197085,37.4370949802915,37.4343970197085,Москва,Отдел МВД России по району Южное Тушино г. Москвы,"Отдел МВД России по району Южное Тушино г. Москвы, Москва"
37.5286278,55.742952,establishment,rooftop,"ulitsa kul'neva, 14, moskva, russia, 121170",55.7441996302915,55.74150166970851,37.5299126802915,37.5272147197085,Москва,Отдел МВД России по району Дорогомилово г. Москвы,"Отдел МВД России по району Дорогомилово г. Москвы, Москва"
37.6220624,55.7114889,political,approximate,"danilovsky district, moscow, russia",55.7296749,55.684513,37.6674419,37.605896,Москва,ОМВД России по Даниловскому району г. Москвы,"ОМВД России по Даниловскому району г. Москвы, Москва"
37.6173,55.755826,locality,approximate,"moscow, russia",56.0214609,55.142591,37.9678221,36.8032249,Москва,Участковый пункт полиции № 4 по Академческому району,"Участковый пункт полиции № 4 по Академческому району, Москва"
37.4454138,55.7198216,establishment,rooftop,"ulitsa veresayeva, 7, moskva, russia, 121357",55.72115623029149,55.7184582697085,37.4465856802915,37.4438877197085,Москва,Отдел МВД России по Можайскому району г. Москвы,"Отдел МВД России по Можайскому району г. Москвы, Москва"
37.3946017,55.794923,establishment,rooftop,"ulitsa tvardovskogo, 7, moskva, russia, 123458",55.7961353302915,55.7934373697085,37.3958360802915,37.3931381197085,Москва,Отдел МВД России по району Строгино г. Москвы,"Отдел МВД России по району Строгино г. Москвы, Москва"
37.6029292,55.6249167,establishment,rooftop,"sumskaya ulitsa, 6а, moskva, russia, 117208",55.62628343029149,55.62358546970849,37.6041739802915,37.6014760197085,Москва,ОМВД России по району Чертаново Северное г. Москвы,"ОМВД России по району Чертаново Северное г. Москвы, Москва"
37.5582644,55.82358679999999,political,approximate,"timiryazevsky district, moscow, russia",55.849853,55.805004,37.5845101,37.531524,Москва,ОМВД России по району Тимирязевский г. Москвы,"ОМВД России по району Тимирязевский г. Москвы, Москва"
37.6649101,55.8377382,establishment,rooftop,"ulitsa bazhova, 15 а стр 1, moskva, russia, 129128",55.83904058029149,55.83634261970849,37.6661910302915,37.6634930697085,Москва,ОМВД Ростокино,"ОМВД Ростокино, Москва"
37.5319947,55.6789262,political,approximate,"lomonosovsky district, moscow, russia",55.690155,55.6682688,37.5553811,37.5114281,Москва,Ломоносовский,"Ломоносовский, Москва"
37.612613,55.770294,establishment,rooftop,"petrovka ulitsa, д. 38, moskva, russia, 127006",55.77153638029149,55.7688384197085,37.6135788302915,37.6108808697085,Москва,ОМВД России по району Тверской г. Москвы,"ОМВД России по району Тверской г. Москвы, Москва"
37.6211384,55.7521239,neighborhood,approximate,"kitay-gorod, moscow, russia",55.7617308,55.74677699999999,37.6347832,37.6040822,Москва,Отдел МВД России по району Китай-город г. Москвы,"Отдел МВД России по району Китай-город г. Москвы, Москва"
37.6759502,55.703957,establishment,rooftop,"ulitsa trofimova, 19, корп. 2, moskva, russia, 115432",55.70530298029149,55.70260501970849,37.6773890302915,37.6746910697085,Москва,Отдел МВД России по Южнопортовому району,"Отдел МВД России по Южнопортовому району, Москва"
37.661731,55.871489,establishment,rooftop,"yeniseyskaya ulitsa, 23, moskva, russia, 129281",55.8728515302915,55.8701535697085,37.6632676302915,37.6605696697085,Москва,ОМВД Бабушкинский,"ОМВД Бабушкинский, Москва"
37.7307567,55.6829426,establishment,rooftop,"ulitsa polbina, 7, moskva, russia, 109388",55.6843095802915,55.6816116197085,37.7319723802915,37.7292744197085,Москва,Отдел МВД России по району Печатники,"Отдел МВД России по району Печатники, Москва"
37.4951835,55.6741884,establishment,rooftop,"prospekti vernadskogo, 60, moskva, russia, 119454",55.67553803029149,55.6728400697085,37.49648883029149,37.49379086970849,Москва,ОМВД России по району Проспект Вернадского г. Москвы,"ОМВД России по району Проспект Вернадского г. Москвы, Москва"
37.5888938,55.74779119999999,establishment,rooftop,"krivoarbatsky ln, 14, moskva, russia, 119002",55.7490838302915,55.7463858697085,37.5902964802915,37.5875985197085,Москва,Отдел МВД России по району Арбат г. Москвы,"Отдел МВД России по району Арбат г. Москвы, Москва"
37.5482738,55.5432634,political,approximate,"yuzhnoye butovo district, moscow, russia",55.56075999999999,55.48992699999999,37.6052101,37.4752061,Москва,ОМВД России по району Бутово Южное г. Москвы,"ОМВД России по району Бутово Южное г. Москвы, Москва"
37.5179625,55.6401901,establishment,rooftop,"ulitsa profsoyuznaya, 110, корп. 5, moskva, russia, 117437",55.64149293029151,55.63879496970851,37.5194109302915,37.5167129697085,Москва,ОМВД России по району Коньково г. Москвы,"ОМВД России по району Коньково г. Москвы, Москва"
37.196605,56.01063199999999,establishment,rooftop,"1-y zapadnyy proyezd, 9, zelenograd, moskva, russia, 124460",56.01201733029149,56.0093193697085,37.1978072802915,37.1951093197085,Москва,ОМВД России по районам Матушкино и Савелки г. Москвы,"ОМВД России по районам Матушкино и Савелки г. Москвы, Москва"
37.499008,55.85068399999999,establishment,rooftop,"ulitsa lavochkina, 3, moskva, russia, 125499",55.85201753029149,55.8493195697085,37.5003012802915,37.4976033197085,Москва,ОМВД России по Головинскому району,"ОМВД России по Головинскому району, Москва"
37.7967235,55.79831549999999,establishment,rooftop,"izmaylovskiy bul'var, 41а, moskva, russia, 105264",55.7996251802915,55.7969272197085,37.79794588029149,37.79524791970849,Москва,Отдел МВД России по району Измайлово Восточное г. Москвы,"Отдел МВД России по району Измайлово Восточное г. Москвы, Москва"
37.617547,55.740849,establishment,rooftop,"bolshaya polyanka st, 7/10 строение 2, moskva, russia, 119180",55.7421809302915,55.7394829697085,37.6187961802915,37.6160982197085,Москва,3-й отдел полиции УВД на Московском метрополитене,"3-й отдел полиции УВД на Московском метрополитене, Москва"
37.4656414,55.7900763,establishment,rooftop,"ulitsa berzarina, 35, стр. 1, moskva, russia, 123060",55.7915664302915,55.7888684697085,37.4671016802915,37.4644037197085,Москва,Отдел МВД России по району Хорошево-Мневники г. Москвы,"Отдел МВД России по району Хорошево-Мневники г. Москвы, Москва"
37.5854497,55.8893168,establishment,rooftop,"altuf'yevskoye shosse, 81, moskva, russia, 127576",55.8906608802915,55.8879629197085,37.5869952802915,37.5842973197085,Москва,ОМВД Алтуфьевский,"ОМВД Алтуфьевский, Москва"
30.3609097,59.9310584,locality,approximate,"st petersburg, russia",60.246742,59.63408599999999,30.76454409999999,29.4247991,Санкт-Петербург,Отдел полиции № 14 Фрунзенского района г. Санкт-Петербурга,"Отдел полиции № 14 Фрунзенского района г. Санкт-Петербурга, Санкт-Петербург"
30.2533511,59.8512329,political,approximate,"kirovsky district, st petersburg, russia",59.91757020000001,59.823328,30.300337,30.1614359,Санкт-Петербург,Отдел полиции № 8 Кировского района г. Санкт-Петербурга,"Отдел полиции № 8 Кировского района г. Санкт-Петербурга, Санкт-Петербург"
30.3609097,59.9310584,locality,approximate,"st petersburg, russia",60.246742,59.63408599999999,30.76454409999999,29.4247991,Санкт-Петербург,Отдел полиции № 29 Московского района г. Санкт-Петербурга,"Отдел полиции № 29 Московского района г. Санкт-Петербурга, Санкт-Петербург"
30.3609097,59.9310584,locality,approximate,"st petersburg, russia",60.246742,59.63408599999999,30.76454409999999,29.4247991,Санкт-Петербург,Отдел полиции № 12 Фрунзенского района г. Санкт-Петербурга,"Отдел полиции № 12 Фрунзенского района г. Санкт-Петербурга, Санкт-Петербург"
30.5887589,59.7784235,political,approximate,"kolpinsky district, st petersburg, russia",59.8339964,59.7216528,30.7600287,30.4388707,Санкт-Петербург,Отдел полиции № 39 Колпинского района г. Санкт-Петербурга,"Отдел полиции № 39 Колпинского района г. Санкт-Петербурга, Санкт-Петербург"
30.4700626,59.88203410000001,political,approximate,"nevsky district, st petersburg, russia",59.93734809999999,59.8059846,30.5686705,30.3630155,Санкт-Петербург,Отдел полиции № 10 Невского района г. Санкт-Петербурга,"Отдел полиции № 10 Невского района г. Санкт-Петербурга, Санкт-Петербург"
30.2895668,59.9635148,political,approximate,"petrogradsky district, st petersburg, russia",59.9826781,59.94448420000001,30.3430936,30.2135755,Санкт-Петербург,Отдел полиции № 43 Петроградского района г. Санкт-Петербурга,"Отдел полиции № 43 Петроградского района г. Санкт-Петербурга, Санкт-Петербург"
30.4056716,59.7364812,establishment,rooftop,"ulitsa vyacheslava shishkova, 32/15, sankt-peterburg, russia, 196605",59.73783538029151,59.73513741970849,30.4072493802915,30.4045514197085,Санкт-Петербург,Отдел МВД по Пушкинскому району г. Санкт-Петербурга,"Отдел МВД по Пушкинскому району г. Санкт-Петербурга, Санкт-Петербург"
30.395216,59.994318,political,approximate,"kalininsky district, st petersburg, russia",60.0585677,59.95135299999999,30.4423528,30.3438059,Санкт-Петербург,Отдел полиции № 17 Калининского района г. Санкт-Петербурга,"Отдел полиции № 17 Калининского района г. Санкт-Петербурга, Санкт-Петербург"
30.3609097,59.9310584,locality,approximate,"st petersburg, russia",60.246742,59.63408599999999,30.76454409999999,29.4247991,Санкт-Петербург,Отдел полиции № 51 Московского района г. Санкт-Петербурга,"Отдел полиции № 51 Московского района г. Санкт-Петербурга, Санкт-Петербург"
30.395216,59.994318,political,approximate,"kalininsky district, st petersburg, russia",60.0585677,59.95135299999999,30.4423528,30.3438059,Санкт-Петербург,Отдел полиции № 3 Калининского района г. Санкт-Петербурга,"Отдел полиции № 3 Калининского района г. Санкт-Петербурга, Санкт-Петербург"
30.3109277,59.92665090000001,establishment,rooftop,"kaznacheyskaya ulitsa, 13, sankt-peterburg, russia, 190031",59.92787138029151,59.9251734197085,30.31242308029149,30.30972511970849,Санкт-Петербург,Отдел полиции № 2 Адмиралтейского района г. Санкт-Петербурга,"Отдел полиции № 2 Адмиралтейского района г. Санкт-Петербурга, Санкт-Петербург"
30.2533511,59.8512329,political,approximate,"kirovsky district, st petersburg, russia",59.91757020000001,59.823328,30.300337,30.1614359,Санкт-Петербург,Отдел полиции № 31 Кировского района г. Санкт-Петербурга,"Отдел полиции № 31 Кировского района г. Санкт-Петербурга, Санкт-Петербург"
30.3609097,59.9310584,locality,approximate,"st petersburg, russia",60.246742,59.63408599999999,30.76454409999999,29.4247991,Санкт-Петербург,Отдел полиции № 33 Московского района г. Санкт-Петербурга,"Отдел полиции № 33 Московского района г. Санкт-Петербурга, Санкт-Петербург"
30.270702,59.90809299999999,establishment,rooftop,"obvodniy channel embankment, 150, sankt-peterburg, russia, 190020",59.90944163029149,59.90674366970848,30.2723091302915,30.2696111697085,Санкт-Петербург,Отдел полиции № 77 Адмиралтейского района г. Санкт-Петербурга,"Отдел полиции № 77 Адмиралтейского района г. Санкт-Петербурга, Санкт-Петербург"
30.2903216,59.91747540000001,establishment,rooftop,"ulitsa labutina, 24/54, sankt-peterburg, russia, 190005",59.91888148029151,59.9161835197085,30.2916247802915,30.2889268197085,Санкт-Петербург,Отдел полиции № 1 Адмиралтейского района г. Санкт-Петербурга,"Отдел полиции № 1 Адмиралтейского района г. Санкт-Петербурга, Санкт-Петербург"
30.588875,59.73553,establishment,rooftop,"bul'var trudyashchikhsya, 32, sankt-peterburg, russia, 196657",59.7368726802915,59.73417471970848,30.59031713029149,30.58761916970849,Санкт-Петербург,Отдел полиции № 55 Колпинского района г. Санкт-Петербурга,"Отдел полиции № 55 Колпинского района г. Санкт-Петербурга, Санкт-Петербург"
30.4700626,59.88203410000001,political,approximate,"nevsky district, st petersburg, russia",59.93734809999999,59.8059846,30.5686705,30.3630155,Санкт-Петербург,Отдел полиции № 45 Невского района г. Санкт-Петербурга,"Отдел полиции № 45 Невского района г. Санкт-Петербурга, Санкт-Петербург"
30.3609097,59.9310584,locality,approximate,"st petersburg, russia",60.246742,59.63408599999999,30.76454409999999,29.4247991,Санкт-Петербург,Отдел полиции № 7 Фрунзенского района г. Санкт-Петербурга,"Отдел полиции № 7 Фрунзенского района г. Санкт-Петербурга, Санкт-Петербург"
30.5887589,59.7784235,political,approximate,"kolpinsky district, st petersburg, russia",59.8339964,59.7216528,30.7600287,30.4388707,Санкт-Петербург,Отдел полиции № 80 Колпинского района г. Санкт-Петербурга,"Отдел полиции № 80 Колпинского района г. Санкт-Петербурга, Санкт-Петербург"
30.395216,59.994318,political,approximate,"kalininsky district, st petersburg, russia",60.0585677,59.95135299999999,30.4423528,30.3438059,Санкт-Петербург,Отдел полиции № 21 Калининского района г. Санкт-Петербурга,"Отдел полиции № 21 Калининского района г. Санкт-Петербурга, Санкт-Петербург"
30.3618979,59.93093,political,approximate,"tsentralny district, st petersburg, russia",59.95801350000001,59.91368329999999,30.4034099,30.3080783,Санкт-Петербург,Отдел полиции № 28 Центрального района г. Санкт-Петербурга,"Отдел полиции № 28 Центрального района г. Санкт-Петербурга, Санкт-Петербург"
30.4700626,59.88203410000001,political,approximate,"nevsky district, st petersburg, russia",59.93734809999999,59.8059846,30.5686705,30.3630155,Санкт-Петербург,Отдел полиции № 32 Невского района г. Санкт-Петербурга,"Отдел полиции № 32 Невского района г. Санкт-Петербурга, Санкт-Петербург"
39.6123423,47.2388112,establishment,rooftop,"ulitsa dovatora, 142 а, rostov, rostovskaya oblast', russia, 344015",47.2400891802915,47.2373912197085,39.6138578802915,39.61115991970851,Ростов-на-Дону,Отдел полиции № 3 УМВД по городу Ростову-на-Дону,"Отдел полиции № 3 УМВД по городу Ростову-на-Дону, Ростов-на-Дону"
39.7461296,43.620883,establishment,rooftop,"ул. лесная, 20а, sochi, krasnodarskiy kray, russia, 354003",43.6221853302915,43.6194873697085,39.7475144302915,39.7448164697085,Сочи,Отдел полиции (Центрального района) УМВД по г. Сочи,"Отдел полиции (Центрального района) УМВД по г. Сочи, Сочи"
49.119288,55.797041,establishment,rooftop,"ulitsa karla marksa, 21, kazan, respublika tatarstan, russia, 420111",55.7982336802915,55.7955357197085,49.1205916802915,49.1178937197085,Казань,Отдел полиции № 16 «Япеева» УМВД по г. Казани,"Отдел полиции № 16 «Япеева» УМВД по г. Казани, Казань"
55.9578555,54.73479099999999,locality,approximate,"ufa, republic of bashkortostan, russia",54.955335,54.526562,56.26278989999999,55.7794411,Уфа,Отдел полиции № 9 (Кировский район),"Отдел полиции № 9 (Кировский район), Уфа"
47.232363,56.128725,establishment,rooftop,"ulitsa bogdana khmel'nitskogo, д. 37, cheboksary, chuvashia, russia, 428010",56.1301568302915,56.1274588697085,47.2333390302915,47.2306410697085,Чебоксары,Отдел полиции № 1 УМВД по г. Чебоксары,"Отдел полиции № 1 УМВД по г. Чебоксары, Чебоксары"
32.0503663,54.7903112,locality,approximate,"smolensk, smolensk oblast, russia",54.8527259,54.707542,32.210732,31.78919,Смоленск,Отдел полиции № 1 УМВД по городу Смоленску,"Отдел полиции № 1 УМВД по городу Смоленску, Смоленск"
76.1105178,61.02861900000001,locality,approximate,"megion, khanty-mansi autonomous okrug, russia",61.049164,61.01734810000001,76.14542709999999,76.05652599999999,Мегион,Отдел МВД по городу Мегиону,"Отдел МВД по городу Мегиону, Мегион"
39.87233500000001,59.21413799999999,establishment,rooftop,"ulitsa mal'tseva, 54, vologda, vologodskaya oblast', russia, 160009",59.21538303029151,59.2126850697085,39.8741045802915,39.8714066197085,Вологда,Отдел полиции № 1 УМВД по г. Вологде,"Отдел полиции № 1 УМВД по г. Вологде, Вологда"
45.9794176,51.5398157,political,approximate,"frunzenskiy rayon, saratov, saratov oblast, russia",51.55450399999999,51.5239909,46.0358881,45.9324409,Саратов,Отдел полиции № 6 в составе УМВД по городу Саратову (Фрунзенский район),"Отдел полиции № 6 в составе УМВД по городу Саратову (Фрунзенский район), Саратов"
43.9913472,56.3301101,establishment,rooftop,"nizhnevolzhskaya embankment, 12, nizhnij novgorod, nizhegorodskaya oblast', russia, 603001",56.3315494802915,56.3288515197085,43.9926172802915,43.9899193197085,Нижний Новгород,Отдел полиции № 5 УМВД по Нижнему Новгороду,"Отдел полиции № 5 УМВД по Нижнему Новгороду, Нижний Новгород"
39.1862166,51.6523325,establishment,rooftop,"ulitsa krasnoznamonnaya, 16, voronez, voronezhskaya oblast', russia, 394006",51.65368438029149,51.6509864197085,39.1877572302915,39.1850592697085,Воронеж,Отдел полиции № 8 УМВД России по городу Воронежу (Ленинский район),"Отдел полиции № 8 УМВД России по городу Воронежу (Ленинский район), Воронеж"
37.6544205,55.7418906,administrative_area_level_3,approximate,"taganskiy, moscow, russia",55.7548099,55.7258429,37.699753,37.6320831,Москва,ОМВД России по району Таганский г. Москвы,"ОМВД России по району Таганский г. Москвы, Москва"
37.6096139,55.6818065,establishment,rooftop,"nagornaya ulitsa, 6, moskva, russia, 117186",55.6832062802915,55.6805083197085,37.6110624302915,37.6083644697085,Москва,ОМВД России по району Котловка г. Москвы,"ОМВД России по району Котловка г. Москвы, Москва"
37.563921,55.664306,establishment,rooftop,"novocheremushkinskaya ulitsa, 65, к. 2, moskva, russia, 117418",55.66575968029149,55.6630617197085,37.56534653029149,37.5626485697085,Москва,ОМВД России по району Черемушки г. Москвы,"ОМВД России по району Черемушки г. Москвы, Москва"
37.6382836,55.8709789,political,approximate,"yuzhnoye medvedkovo district, moscow, russia",55.885761,55.861518,37.658302,37.613906,Москва,ОМВД Медведково Южное,"ОМВД Медведково Южное, Москва"
37.544051,55.656181,establishment,rooftop,"ulitsa profsoyuznaya, 61к1, moskva, russia, 117420",55.6575894302915,55.6548914697085,37.54523718029151,37.54253921970851,Москва,ОМВД России по Обручевскому району г. Москвы,"ОМВД России по Обручевскому району г. Москвы, Москва"
37.594417,55.618748,establishment,rooftop,"chertanovskaya ulitsa, 25а, moskva, russia, 117525",55.62012453029151,55.61742656970851,37.5954488302915,37.5927508697085,Москва,ОМВД России по району Чертаново Центральное г. Москвы,"ОМВД России по району Чертаново Центральное г. Москвы, Москва"
37.771313,55.63505499999999,establishment,rooftop,"brateyevskaya ulitsa, 22, moskva, russia, 115408",55.6363282802915,55.6336303197085,37.7727370802915,37.7700391197085,Москва,ОМВД России по району Братеево г. Москвы,"ОМВД России по району Братеево г. Москвы, Москва"
37.6315785,55.7683715,establishment,rooftop,"ulitsa sretenka, 11, moskva, russia, 107045",55.7697064802915,55.7670085197085,37.6330770302915,37.6303790697085,Москва,Отдел МВД России по Мещанскому району г. Москвы,"Отдел МВД России по Мещанскому району г. Москвы, Москва"
37.7510464,55.6698248,establishment,rooftop,"krasnodonskaya ulitsa, 51, moskva, russia, 109382",55.6712426302915,55.6685446697085,37.7523338802915,37.7496359197085,Москва,Отдел МВД России по району Люблино,"Отдел МВД России по району Люблино, Москва"
37.628252,55.736403,establishment,rooftop,"ulitsa pyatnitskaya, 49, moskva, russia, 119017",55.7377583802915,55.7350604197085,37.62947098029149,37.6267730197085,Москва,Отдел МВД России по району Замоскворечье г. Москвы,"Отдел МВД России по району Замоскворечье г. Москвы, Москва"
37.4991868,55.8805898,political,approximate,"zapadnoye degunino district, moscow, russia",55.89286,55.848503,37.5666961,37.4737446,Москва,ОМВД России по району Дегунино Западное г. Москвы,"ОМВД России по району Дегунино Западное г. Москвы, Москва"
37.426898,55.746256,establishment,rooftop,"rublevskoye shosse, 26/2, moskva, russia, 121615",55.7475590802915,55.7448611197085,37.42818133029149,37.4254833697085,Москва,ОМВД России по району Фили-Давыдково г. Москвы,"ОМВД России по району Фили-Давыдково г. Москвы, Москва"
37.6400599,55.6576138,establishment,rooftop,"kashira hwy, 22 корпус 2, moskva, russia, 115201",55.6589335802915,55.6562356197085,37.64148283029149,37.6387848697085,Москва,ОМВД России по району Нагатино-Садовники г. Москвы,"ОМВД России по району Нагатино-Садовники г. Москвы, Москва"
37.7967235,55.79831549999999,establishment,rooftop,"izmaylovskiy bul'var, 41а, moskva, russia, 105264",55.7996251802915,55.7969272197085,37.79794588029149,37.79524791970849,Москва,Отдел МВД России по району Измайлово г. Москвы,"Отдел МВД России по району Измайлово г. Москвы, Москва"
37.601588,55.894492,establishment,rooftop,"muranovskaya ulitsa, 15б, moskva, russia, 127349",55.8957674302915,55.8930694697085,37.6028308802915,37.6001329197085,Москва,ОМВД Бибирево,"ОМВД Бибирево, Москва"
37.1754936,55.9701933,political,approximate,"kryukovo district, moscow, russia",55.9993171,55.947231,37.2196308,37.1433409,Москва,ОМВД России по району Крюково г. Москвы,"ОМВД России по району Крюково г. Москвы, Москва"
37.804722,55.63709,establishment,rooftop,"kapotnya 3-y kvartal, 29, moskva, russia, 109429",55.6384410802915,55.6357431197085,37.8061614802915,37.8034635197085,Москва,Отдел МВД России по району Капотня,"Отдел МВД России по району Капотня, Москва"
37.675759,55.78637,establishment,rooftop,"malenkovskaya ulitsa, 42, moskva, russia, 104014",55.78774728029151,55.78504931970851,37.6772043802915,37.6745064197085,Москва,ОМВД России по району Сокольники г. Москвы,"ОМВД России по району Сокольники г. Москвы, Москва"
37.35463500000001,55.636061,establishment,rooftop,"ул. шолохова, 5а, moskva, russia, 119634",55.63744508029149,55.63474711970849,37.35591743029151,37.35321946970851,Москва,Отдел МВД России по району Ново-Переделкино г. Москвы,"Отдел МВД России по району Ново-Переделкино г. Москвы, Москва"
37.6016398,55.7422768,establishment,rooftop,"ulitsa ostozhenka, 7, корпус 1, moskva, russia, 119034",55.7436523302915,55.7409543697085,37.6030276302915,37.6003296697085,Москва,ОМВД России по району Хамовники г. Москвы,"ОМВД России по району Хамовники г. Москвы, Москва"
37.654687,55.889485,establishment,rooftop,"shirokaya ulitsa, 3, moskva, russia, 127282",55.89082758029151,55.88812961970851,37.65590123029151,37.65320326970851,Москва,ОМВД Медведково Северное,"ОМВД Медведково Северное, Москва"
37.6803804,55.75794879999999,establishment,rooftop,"samokatnaya ulitsa, 3/8 стр. 3, moskva, russia, 111033",55.7592396302915,55.7565416697085,37.68173643029149,37.6790384697085,Москва,Отдел МВД России по району Лефортово,"Отдел МВД России по району Лефортово, Москва"
37.8304191,55.761775,establishment,rooftop,"ulitsa molostovykh, 8а, moskva, russia, 111555",55.7632289302915,55.7605309697085,37.8319535302915,37.8292555697085,Москва,Отдел МВД России по району Ивановское г. Москвы,"Отдел МВД России по району Ивановское г. Москвы, Москва"
37.5422338,55.760687,establishment,rooftop,"ulitsa litvina-sedogo, 3а, moskva, russia, 123317",55.7620428802915,55.7593449197085,37.54352633029151,37.54082836970851,Москва,ОМВД России по Пресненскому району г. Москвы,"ОМВД России по Пресненскому району г. Москвы, Москва"
37.53785999999999,55.805253,establishment,rooftop,"chernyakhovskogo ulitsa, 10, moskva, russia, 125319",55.8066561802915,55.80395821970851,37.5393383802915,37.5366404197085,Москва,ОМВД России по району Аэропорт,"ОМВД России по району Аэропорт, Москва"
37.8051304,55.7482632,establishment,rooftop,"martenovskaya ulitsa, 31а, moskva, russia, 111394",55.7494963302915,55.7467983697085,37.80628713029149,37.80358916970849,Москва,Отдел МВД России по району Новогиреево г. Москвы,"Отдел МВД России по району Новогиреево г. Москвы, Москва"
37.657535,55.771981,establishment,rooftop,"novoryazanskaya ulitsa, 10, moskva, russia, 107078",55.7734335802915,55.7707356197085,37.6588572302915,37.6561592697085,Москва,Отдел МВД России по району Басманный г. Москвы,"Отдел МВД России по району Басманный г. Москвы, Москва"
37.618297,55.858039,establishment,rooftop,"olonetskaya ulitsa, 25а, moskva, russia, 127273",55.8594464302915,55.8567484697085,37.6193734302915,37.6166754697085,Москва,ОМВД Отрадное,"ОМВД Отрадное, Москва"
37.448413,55.817243,establishment,rooftop,"123362, ulitsa vodnikov, 10, moskva, russia, 125362",55.81854388029149,55.81584591970849,37.4500276802915,37.4473297197085,Москва,Отдел МВД России по району Покровское-Стрешнево г. Москвы,"Отдел МВД России по району Покровское-Стрешнево г. Москвы, Москва"
37.55756179999999,55.8801242,political,approximate,"vostochnoye degunino district, moscow, russia",55.8976631,55.8531379,37.5741041,37.5427469,Москва,ОМВД России по району Дегунино Восточное г. Москвы,"ОМВД России по району Дегунино Восточное г. Москвы, Москва"
37.7500423,55.7314343,route,geometric_center,"orekhovo-zuyevskiy proyezd, moskva, russia",55.7335237,55.73018279999999,37.7619715,37.736583,Москва,Отдел полиции № 1 МУ МВД «Орехово-Зуевское»,"Отдел полиции № 1 МУ МВД «Орехово-Зуевское», Москва"
37.589177,55.811159,establishment,rooftop,"ulitsa rustaveli, 6а, moskva, russia, 127254",55.81240133029151,55.80970336970851,37.59053763029149,37.5878396697085,Москва,ОМВД Бутырский,"ОМВД Бутырский, Москва"
37.434283,55.860201000000004,establishment,rooftop,"planernaya st, 6, moskva, russia, 125481",55.8616298802915,55.8589319197085,37.4356765802915,37.4329786197085,Москва,Отдел МВД России по району Северное Тушино г. Москвы,"Отдел МВД России по району Северное Тушино г. Москвы, Москва"
37.687945,55.87371,establishment,rooftop,"izumrudnaya ulitsa, 30, moskva, russia, 129346",55.87511793029149,55.8724199697085,37.6891908802915,37.68649291970851,Москва,ОМВД Лосиноостровский,"ОМВД Лосиноостровский, Москва"
37.782522,55.697432,establishment,rooftop,"ulitsa yunykh lenintsev, 96, к. 1, moskva, russia, 109439",55.6988642802915,55.6961663197085,37.7839192802915,37.7812213197085,Москва,Отдел МВД России по району Кузьминки,"Отдел МВД России по району Кузьминки, Москва"
37.7102611,55.79062769999999,establishment,rooftop,"suvorovskaya ulitsa, 25, moskva, russia, 107023",55.7919658302915,55.7892678697085,37.7117150802915,37.7090171197085,Москва,ОМВД России по району Преображенское г. Москвы,"ОМВД России по району Преображенское г. Москвы, Москва"
37.688625,55.860209,establishment,rooftop,"yaroslavskoye hwy, 49, moskva, russia, 129337",55.8615202302915,55.8588222697085,37.6899153802915,37.6872174197085,Москва,ОМВД Ярославский,"ОМВД Ярославский, Москва"
37.5512107,55.7920966,political,approximate,"northern administrative okrug, moscow, russia",55.95781710000001,55.759811,37.588489,37.3363239,Москва,Отдел МВД России по району Измайлово Северное г. Москвы,"Отдел МВД России по району Измайлово Северное г. Москвы, Москва"
37.454523,55.81035499999999,establishment,rooftop,"aviatsionnaya ulitsa, 68, корп. 2, moskva, russia, 123182",55.81158243029149,55.8088844697085,37.4558843302915,37.4531863697085,Москва,Отдел МВД России по району Щукино г. Москвы,"Отдел МВД России по району Щукино г. Москвы, Москва"
37.61850370000001,55.8781109,establishment,rooftop,"yasnyy proyezd, 23, moskva, russia, 127081",55.8794611302915,55.8767631697085,37.6202391802915,37.61754121970851,Москва,Лужники (отдел полиции по охране с/к),"Лужники (отдел полиции по охране с/к), Москва"
37.787203,55.76345999999999,establishment,rooftop,"3-ya vladimirskaya ulitsa, 3а, moskva, russia, 111123",55.76478493029149,55.76208696970849,37.7884287302915,37.7857307697085,Москва,ОМВД России по району Перово г. Москвы,"ОМВД России по району Перово г. Москвы, Москва"
37.8077079,55.7056015,establishment,rooftop,"sormovskaya ulitsa, 21, moskva, russia, 109444",55.7069240802915,55.7042261197085,37.8091395302915,37.8064415697085,Москва,Отдел МВД России по району Выхино-Жулебино г. Москвы,"Отдел МВД России по району Выхино-Жулебино г. Москвы, Москва"
37.6901176,55.5826071,establishment,rooftop,"115672, zagor'yevskaya ulitsa, 21, к. 2, moskva, russia, 115598",55.58394398029149,55.58124601970849,37.6913813802915,37.6886834197085,Москва,ОМВД России по району Бирюлёво Восточное г. Москвы,"ОМВД России по району Бирюлёво Восточное г. Москвы, Москва"
37.52372099999999,55.834207,establishment,rooftop,"sobolevskiy proyezd, 22, moskva, russia, 125239",55.83549723029149,55.8327992697085,37.52523668029149,37.52253871970849,Москва,ОМВД России по району Коптево г. Москвы,"ОМВД России по району Коптево г. Москвы, Москва"
37.5591072,55.8607376,establishment,rooftop,"beskudnikovskiy bul'var, 9а, moskva, russia, 127474",55.8619741302915,55.8592761697085,37.5607017802915,37.5580038197085,Москва,ОМВД России по району Бескудниково,"ОМВД России по району Бескудниково, Москва"
37.5613534,55.5031761,establishment,rooftop,"ulitsa zheleznodorozhnaya, 6, moskva, russia, 108851",55.50452148029149,55.50182351970849,37.56293943029149,37.5602414697085,Москва,МО МВД России «Щербинский» г. Москвы,"МО МВД России «Щербинский» г. Москвы, Москва"
37.569941,55.67838399999999,establishment,rooftop,"ул. кржижановского, д. 20/30, к.7, moskva, russia, 117218",55.6798648802915,55.6771669197085,37.5714331302915,37.5687351697085,Москва,ОМВД России по району Академический г. Москвы,"ОМВД России по району Академический г. Москвы, Москва"
37.7388687,55.599514,establishment,rooftop,"yeletskaya ulitsa, 37, moskva, russia, 115583",55.6008157302915,55.5981177697085,37.7401019802915,37.7374040197085,Москва,ОМВД России по району Орехово-Борисово Южное г. Москвы,"ОМВД России по району Орехово-Борисово Южное г. Москвы, Москва"
37.4869356,55.87030499999999,establishment,rooftop,"ulitsa dybenko, 10а, стр. 1, moskva, russia, 125475",55.87171103029149,55.8690130697085,37.4882278802915,37.4855299197085,Москва,ОМВД России по району Ховрино г. Москвы,"ОМВД России по району Ховрино г. Москвы, Москва"
37.51352610000001,55.6097337,establishment,rooftop,"golubinskaya ulitsa, 6, moskva, russia, 117574",55.61090928029149,55.6082113197085,37.5151017802915,37.5124038197085,Москва,ОМВД России по району Ясенево г. Москвы,"ОМВД России по району Ясенево г. Москвы, Москва"
37.5079891,55.7033576,establishment,rooftop,"michurinskiy prospekt, 12, корп. 1, moskva, russia, 119192",55.70465283029149,55.7019548697085,37.5094259802915,37.5067280197085,Москва,ОМВД России по району Тропарево-Никулино г. Москва,"ОМВД России по району Тропарево-Никулино г. Москва, Москва"
37.62250179999999,55.8302307,political,approximate,"ostankinsky district, moscow, russia",55.859378,55.79718,37.649635,37.5799708,Москва,ОМВД Останкинский,"ОМВД Останкинский, Москва"
37.4098487,55.6438879,establishment,rooftop,"volynskaya ulitsa, 10a, moskva, russia, 119620",55.6451950802915,55.6424971197085,37.4113255802915,37.4086276197085,Москва,ОМВД России по району Солнцево г. Москвы,"ОМВД России по району Солнцево г. Москвы, Москва"
37.9340457,55.7057608,establishment,rooftop,"ulitsa nedorubova, 19, moskva, russia, 111674",55.70713338029149,55.7044354197085,37.9355476302915,37.9328496697085,Москва,Отдел МВД России по району Некрасовка,"Отдел МВД России по району Некрасовка, Москва"
37.404343,55.76378099999999,establishment,rooftop,"osennyaya ulitsa, 15к1, moskva, russia, 121609",55.7651343302915,55.7624363697085,37.4058178302915,37.4031198697085,Москва,Отдел МВД России по району Крылатское г. Москвы,"Отдел МВД России по району Крылатское г. Москвы, Москва"
37.4821207,55.63111439999999,political,approximate,"tyoply stan district, moscow, russia",55.651565,55.608706,37.520347,37.4554103,Москва,ОМВД России по району Теплый Стан г. Москвы,"ОМВД России по району Теплый Стан г. Москвы, Москва"
37.4073499,55.7284474,establishment,rooftop,"ulitsa ivana franko, 43, moskva, russia, 121355",55.7299015302915,55.7272035697085,37.4087285802915,37.4060306197085,Москва,Отдел МВД России по району Кунцево г. Москвы,"Отдел МВД России по району Кунцево г. Москвы, Москва"
37.590572,55.83323,establishment,rooftop,"malaya botanicheskaya ulitsa, 4а, moskva, russia, 127276",55.8344760302915,55.8317780697085,37.5919571302915,37.58925916970851,Москва,ОМВД Марфино,"ОМВД Марфино, Москва"
37.7448017,55.7163988,establishment,rooftop,"volzhskiy bul'var, квартал 95 кор. 11, moskva, russia, 109125",55.7177748302915,55.7150768697085,37.7462894802915,37.7435915197085,Москва,Отдел МВД России по району Текстильщики,"Отдел МВД России по району Текстильщики, Москва"
30.4700626,59.88203410000001,political,approximate,"nevsky district, st petersburg, russia",59.93734809999999,59.8059846,30.5686705,30.3630155,Санкт-Петербург,Отдел полиции № 75 Невского района г. Санкт-Петербурга,"Отдел полиции № 75 Невского района г. Санкт-Петербурга, Санкт-Петербург"
30.4700626,59.88203410000001,political,approximate,"nevsky district, st petersburg, russia",59.93734809999999,59.8059846,30.5686705,30.3630155,Санкт-Петербург,Отдел полиции № 70 Невского района г. Санкт-Петербурга,"Отдел полиции № 70 Невского района г. Санкт-Петербурга, Санкт-Петербург"
30.4715074,59.9749045,political,approximate,"krasnogvardeysky district, st petersburg, russia",60.04158939999999,59.9151231,30.56648879999999,30.3936557,Санкт-Петербург,Отдел полиции № 26 по Красногвардейскому району г. Санкт-Петербурга,"Отдел полиции № 26 по Красногвардейскому району г. Санкт-Петербурга, Санкт-Петербург"
30.2556906,60.0808432,political,approximate,"vyborgsky district, st petersburg, russia",60.1255121,59.95165429999999,30.3888101,30.0711313,Санкт-Петербург,Отдел полиции № 20 Выборгского район г. Санкт-Петербурга,"Отдел полиции № 20 Выборгского район г. Санкт-Петербурга, Санкт-Петербург"
30.3618979,59.93093,political,approximate,"tsentralny district, st petersburg, russia",59.95801350000001,59.91368329999999,30.4034099,30.3080783,Санкт-Петербург,Отдел полиции № 76 Центрального района г. Санкт-Петербурга,"Отдел полиции № 76 Центрального района г. Санкт-Петербурга, Санкт-Петербург"
30.419377,59.93172299999999,establishment,rooftop,"zanevskiy prospekt, 28к2, sankt-peterburg, russia, 195112",59.9329439802915,59.93024601970849,30.4204081302915,30.4177101697085,Санкт-Петербург,Отдел полиции № 52 Красногвардейского района г. Санкт-Петербурга,"Отдел полиции № 52 Красногвардейского района г. Санкт-Петербурга, Санкт-Петербург"
30.2084582,60.0231576,political,approximate,"primorsky district, st petersburg, russia",60.06860989999999,59.9785584,30.3311535,29.9548159,Санкт-Петербург,Отдел полиции № 35 Приморского района г. Санкт-Петербурга,"Отдел полиции № 35 Приморского района г. Санкт-Петербурга, Санкт-Петербург"
30.1262226,59.8322796,political,approximate,"krasnoselsky district, st petersburg, russia",59.8718159,59.69187639999999,30.2697055,30.0347818,Санкт-Петербург,Отдел полиции № 42 Красносельского района г. Санкт-Петербурга,"Отдел полиции № 42 Красносельского района г. Санкт-Петербурга, Санкт-Петербург"
30.4715074,59.9749045,political,approximate,"krasnogvardeysky district, st petersburg, russia",60.04158939999999,59.9151231,30.56648879999999,30.3936557,Санкт-Петербург,Отдел полиции № 66 Красногвардейского района г. Санкт-Петербурга,"Отдел полиции № 66 Красногвардейского района г. Санкт-Петербурга, Санкт-Петербург"
30.2533511,59.8512329,political,approximate,"kirovsky district, st petersburg, russia",59.91757020000001,59.823328,30.300337,30.1614359,Санкт-Петербург,Отдел полиции № 64 Кировского района г. Санкт-Петербурга,"Отдел полиции № 64 Кировского района г. Санкт-Петербурга, Санкт-Петербург"
30.4715074,59.9749045,political,approximate,"krasnogvardeysky district, st petersburg, russia",60.04158939999999,59.9151231,30.56648879999999,30.3936557,Санкт-Петербург,Отдел полиции № 13 Красногвардейского района г. Санкт-Петербурга,"Отдел полиции № 13 Красногвардейского района г. Санкт-Петербурга, Санкт-Петербург"
30.2316628,59.9477569,political,approximate,"vasileostrovsky district, st petersburg, russia",59.9621661,59.91743700000001,30.3110012,30.1779189,Санкт-Петербург,Отдел полиции № 16 Василеостровского района г. Санкт-Петербурга,"Отдел полиции № 16 Василеостровского района г. Санкт-Петербурга, Санкт-Петербург"
30.58425099999999,59.744331,establishment,rooftop,"в. д., ул. веры слуцкой, 32 корпус 2, санкт-петербург, russia, 196653",59.74547003029151,59.7427720697085,30.58550893029149,30.58281096970849,Санкт-Петербург,Отдел МВД по Колпинскому району г. Санкт-Петербурга,"Отдел МВД по Колпинскому району г. Санкт-Петербурга, Санкт-Петербург"
30.1262226,59.8322796,political,approximate,"krasnoselsky district, st petersburg, russia",59.8718159,59.69187639999999,30.2697055,30.0347818,Санкт-Петербург,Отдел полиции № 82 Красносельского района г. Санкт-Петербурга,"Отдел полиции № 82 Красносельского района г. Санкт-Петербурга, Санкт-Петербург"
30.3618979,59.93093,political,approximate,"tsentralny district, st petersburg, russia",59.95801350000001,59.91368329999999,30.4034099,30.3080783,Санкт-Петербург,Отдел полиции № 78 Центрального района г. Санкт-Петербурга,"Отдел полиции № 78 Центрального района г. Санкт-Петербурга, Санкт-Петербург"
30.2556906,60.0808432,political,approximate,"vyborgsky district, st petersburg, russia",60.1255121,59.95165429999999,30.3888101,30.0711313,Санкт-Петербург,Отдел полиции № 59 Выборгского района г. Санкт-Петербурга,"Отдел полиции № 59 Выборгского района г. Санкт-Петербурга, Санкт-Петербург"
30.1262226,59.8322796,political,approximate,"krasnoselsky district, st petersburg, russia",59.8718159,59.69187639999999,30.2697055,30.0347818,Санкт-Петербург,Отдел полиции № 74 Красносельского района г. Санкт-Петербурга,"Отдел полиции № 74 Красносельского района г. Санкт-Петербурга, Санкт-Петербург"
30.2084582,60.0231576,political,approximate,"primorsky district, st petersburg, russia",60.06860989999999,59.9785584,30.3311535,29.9548159,Санкт-Петербург,Отдел полиции № 25 Приморского района г. Санкт-Петербурга,"Отдел полиции № 25 Приморского района г. Санкт-Петербурга, Санкт-Петербург"
30.2895668,59.9635148,political,approximate,"petrogradsky district, st petersburg, russia",59.9826781,59.94448420000001,30.3430936,30.2135755,Санкт-Петербург,Отдел полиции № 18 Петроградского района г. Санкт-Петербурга,"Отдел полиции № 18 Петроградского района г. Санкт-Петербурга, Санкт-Петербург"
30.2084582,60.0231576,political,approximate,"primorsky district, st petersburg, russia",60.06860989999999,59.9785584,30.3311535,29.9548159,Санкт-Петербург,Отдел полиции № 86 Приморского района г. Санкт-Петербурга,"Отдел полиции № 86 Приморского района г. Санкт-Петербурга, Санкт-Петербург"
38.9633671,45.0434377,political,approximate,"zapadnyy okrug, krasnodar, krasnodar krai, russia",45.0732193,44.9920468,38.98632509999999,38.8994479,Краснодар,ОВД Западного округа г. Краснодара,"ОВД Западного округа г. Краснодара, Краснодар"
38.9946399,45.03913900000001,establishment,rooftop,"ulitsa sadovaya, 110, krasnodar, krasnodarskiy kray, russia, 350002",45.04053148029151,45.03783351970851,38.9957114802915,38.9930135197085,Краснодар,Отдел полиции (Центральный округ) УМВД по городу Краснодару,"Отдел полиции (Центральный округ) УМВД по городу Краснодару, Краснодар"
60.7040619,56.76059040000001,establishment,rooftop,"inzhenernaya ulitsa, 54, yekaterinburg, sverdlovskaya oblast', russia, 620010",56.7619264802915,56.7592285197085,60.7052872802915,60.70258931970849,Екатеринбург,Отдел полиции № 9 УМВД по городу Екатеринбургу,"Отдел полиции № 9 УМВД по городу Екатеринбургу, Екатеринбург"
60.7040619,56.76059040000001,establishment,rooftop,"inzhenernaya ulitsa, 54, yekaterinburg, sverdlovskaya oblast', russia, 620010",56.7619264802915,56.7592285197085,60.7052872802915,60.70258931970849,Екатеринбург,Отдел полиции № 11 УМВД по городу Екатеринбургу,"Отдел полиции № 11 УМВД по городу Екатеринбургу, Екатеринбург"
60.7040619,56.76059040000001,establishment,rooftop,"inzhenernaya ulitsa, 54, yekaterinburg, sverdlovskaya oblast', russia, 620010",56.7619264802915,56.7592285197085,60.7052872802915,60.70258931970849,Екатеринбург,Отдел полиции № 7 УМВД по городу Екатеринбургу,"Отдел полиции № 7 УМВД по городу Екатеринбургу, Екатеринбург"
46.1158548,51.554787,political,approximate,"volzhskiy rayon, saratov, saratov oblast, russia",51.6218754,51.5041245,46.2022736,46.030162,Саратов,Отдел полиции № 1 в составе УМВД по городу Саратову (Волжский район),"Отдел полиции № 1 в составе УМВД по городу Саратову (Волжский район), Саратов"
46.0070257,51.55607699999999,political,approximate,"kirovskiy rayon, saratov, saratov oblast, russia",51.6282226,51.5326379,46.0814072,45.9680859,Саратов,Отдел полиции № 3 в составе УМВД по городу Саратову (Кировский район),"Отдел полиции № 3 в составе УМВД по городу Саратову (Кировский район), Саратов"
43.9913472,56.3301101,establishment,rooftop,"nizhnevolzhskaya embankment, 12, nizhnij novgorod, nizhegorodskaya oblast', russia, 603001",56.3315494802915,56.3288515197085,43.9926172802915,43.9899193197085,Нижний Новгород,Отдел полиции № 2 УМВД по Нижнему Новгороду,"Отдел полиции № 2 УМВД по Нижнему Новгороду, Нижний Новгород"
43.9913472,56.3301101,establishment,rooftop,"nizhnevolzhskaya embankment, 12, nizhnij novgorod, nizhegorodskaya oblast', russia, 603001",56.3315494802915,56.3288515197085,43.9926172802915,43.9899193197085,Нижний Новгород,Отдел полиции № 1 УМВД по Нижнему Новгороду,"Отдел полиции № 1 УМВД по Нижнему Новгороду, Нижний Новгород"
43.9913472,56.3301101,establishment,rooftop,"nizhnevolzhskaya embankment, 12, nizhnij novgorod, nizhegorodskaya oblast', russia, 603001",56.3315494802915,56.3288515197085,43.9926172802915,43.9899193197085,Нижний Новгород,Отдел полиции № 7 УМВД по Нижнему Новгороду,"Отдел полиции № 7 УМВД по Нижнему Новгороду, Нижний Новгород"
39.1862166,51.6523325,establishment,rooftop,"ulitsa krasnoznamonnaya, 16, voronez, voronezhskaya oblast', russia, 394006",51.65368438029149,51.6509864197085,39.1877572302915,39.1850592697085,Воронеж,Отдел полиции № 6 УМВД по городу Воронежу (Центральный район),"Отдел полиции № 6 УМВД по городу Воронежу (Центральный район), Воронеж"
20.5063522,54.7183801,establishment,rooftop,"ulitsa mikhaila galkovskogo, 2, kaliningrad, kaliningradskaya oblast', russia, 236040",54.71981488029149,54.7171169197085,20.5076065802915,20.5049086197085,Калининград,Отдел МВД России по Ленинградскому району города Калининграда,"Отдел МВД России по Ленинградскому району города Калининграда, Калининград"
20.520712,54.716361,establishment,rooftop,"ulitsa klinicheskaya, 65, kaliningrad, kaliningradskaya oblast', russia, 236035",54.71770703029149,54.71500906970849,20.5223441302915,20.5196461697085,Калининград,Отдел полиции № 3 УМВД по городу Калининграду,"Отдел полиции № 3 УМВД по городу Калининграду, Калининград"
20.520712,54.716361,establishment,rooftop,"ulitsa klinicheskaya, 65, kaliningrad, kaliningradskaya oblast', russia, 236035",54.71770703029149,54.71500906970849,20.5223441302915,20.5196461697085,Калининград,Отдел полиции № 2 УМВД по городу Калининграду,"Отдел полиции № 2 УМВД по городу Калининграду, Калининград"
49.119288,55.797041,establishment,rooftop,"ulitsa karla marksa, 21, kazan, respublika tatarstan, russia, 420111",55.7982336802915,55.7955357197085,49.1205916802915,49.1178937197085,Казань,Отдел полиции № 2 «Вишневский» УМВД по г. Казани,"Отдел полиции № 2 «Вишневский» УМВД по г. Казани, Казань"
44.4859,48.692468,establishment,rooftop,"irkutskaya ulitsa, 20, volgograd, volgogradskaya oblast', russia, 400074",48.69373128029149,48.6910333197085,44.4870906302915,44.4843926697085,Волгоград,Отдел полиции № 4 УМВД по г. Волгограду,"Отдел полиции № 4 УМВД по г. Волгограду, Волгоград"
65.5618636,57.1553394,locality,approximate,"tyumen, tyumen oblast, russia",57.27789509999999,57.007639,65.81502700000001,65.2788889,Тюмень,Отдел полиции № 4 УМВД по г. Тюмени,"Отдел полиции № 4 УМВД по г. Тюмени, Тюмень"
56.0195588,54.7496465,establishment,geometric_center,"kalininsky district, ufa, republic of bashkortostan, russia, 450071",54.7509871802915,54.7482892197085,56.0209282302915,56.0182302697085,Уфа,Отдел полиции № 6 (Октябрьский район),"Отдел полиции № 6 (Октябрьский район), Уфа"
55.9578555,54.73479099999999,locality,approximate,"ufa, republic of bashkortostan, russia",54.955335,54.526562,56.26278989999999,55.7794411,Уфа,Отдел полиции № 3 (Кировский район),"Отдел полиции № 3 (Кировский район), Уфа"
41.0108146,56.9726955,political,approximate,"leninskiy rayon, ivanovo, ivanovo oblast, russia",57.0047605,56.9478403,41.0636113,40.9734474,Иваново,Отдел полиции № 1 «Ленинский»,"Отдел полиции № 1 «Ленинский», Иваново"
40.971831,57.01449599999999,street_address,rooftop,"oktyabr'skaya ulitsa, 2, ivanovo, ivanovskaya oblast', russia, 153002",57.0156279302915,57.0129299697085,40.9729710302915,40.9702730697085,Иваново,Отдел полиции № 2 «Октябрьский,"Отдел полиции № 2 «Октябрьский, Иваново"
56.258437,58.002898,establishment,rooftop,"ulitsa sibirskaya, 48, perm, permskiy kray, russia, 614007",58.00423653029151,58.0015385697085,56.2599591802915,56.2572612197085,Пермь,Отдел полиции № 7 (дисл. Свердловский р-н) УМВД по г. Перми,"Отдел полиции № 7 (дисл. Свердловский р-н) УМВД по г. Перми, Пермь"
56.22696740000001,58.00916830000001,locality,approximate,"perm, perm krai, russia",58.176955,57.864017,56.65680709999999,55.811744,Пермь,Отдел полиции № 1 УМВД по городу Пензе,"Отдел полиции № 1 УМВД по городу Пензе, Пермь"
82.936869,55.044112,null,approximate,"1, novosibirsk, novosibirsk oblast, russia, 630005",55.0453625302915,55.04266456970851,82.9382390802915,82.93554111970849,Новосибирск,Отдел полиции № 1 «Центральный»,"Отдел полиции № 1 «Центральный», Новосибирск"
82.9180975,55.0250657,street_address,rooftop,"ulitsa sovetskaya, 10, novosibirsk, novosibirskaya oblast', russia, 630099",55.0264025802915,55.0237046197085,82.9192940302915,82.91659606970849,Новосибирск,Отдел полиции № 10 «Советский»,"Отдел полиции № 10 «Советский», Новосибирск"
82.910038,55.023477,street_address,rooftop,"oktyabr'skaya ulitsa, 6, novosibirsk, novosibirskaya oblast', russia, 630099",55.0249388802915,55.0222409197085,82.91135358029152,82.90865561970851,Новосибирск,Отдел полиции № 6 «Октябрьский»,"Отдел полиции № 6 «Октябрьский», Новосибирск"
55.0891088,51.7843163,establishment,rooftop,"ulitsa nevel'skaya, 6, orenburg, orenburgskaya oblast', russia, 460009",51.7856020302915,51.7829040697085,55.0905063302915,55.0878083697085,Оренбург,Отдел полиции № 1 МУ МВД «Оренбургское»,"Отдел полиции № 1 МУ МВД «Оренбургское», Оренбург"
49.6213247,58.57634449999999,establishment,rooftop,"ulitsa krasina, д.51, kirov, kirovskaya oblast', russia, 610035",58.57760558029149,58.57490761970848,49.6226781802915,49.6199802197085,Киров,Управление МВД России по г. Кирову,"Управление МВД России по г. Кирову, Киров"
39.6123423,47.2388112,establishment,rooftop,"ulitsa dovatora, 142 а, rostov, rostovskaya oblast', russia, 344015",47.2400891802915,47.2373912197085,39.6138578802915,39.61115991970851,Ростов-на-Дону,Отдел полиции № 6 УМВД по городу Ростову-на-Дону,"Отдел полиции № 6 УМВД по городу Ростову-на-Дону, Ростов-на-Дону"
104.293474,52.290782,establishment,geometric_center,"irkutsk, irkutsk oblast, russia, 664011",52.2921467302915,52.2894487697085,104.2948336802915,104.2921357197085,Иркутск,Отдел полиции № 5 УМВД по г. Иркутску,"Отдел полиции № 5 УМВД по г. Иркутску, Иркутск"
28.3645,57.82226299999999,establishment,rooftop,"inzhenernaya ulitsa, 4а, pskov, pskovskaya oblast', russia, 180021",57.82366218029151,57.82096421970849,28.3661467802915,28.36344881970849,Псков,Отдел полиции № 1 УМВД по городу Пскову,"Отдел полиции № 1 УМВД по городу Пскову, Псков"
30.588875,59.73553,establishment,rooftop,"bul'var trudyashchikhsya, 32, sankt-peterburg, russia, 196657",59.7368726802915,59.73417471970848,30.59031713029149,30.58761916970849,Колпино,Отдел полиции № 55 Колпинского района г. Санкт-Петербурга,"Отдел полиции № 55 Колпинского района г. Санкт-Петербурга, Колпино"
31.2741928,58.52556980000001,locality,approximate,"veliky novgorod, novgorod oblast, russia",58.64160699999999,58.47078399999999,31.4265371,31.1983321,Великий Новгород,Управление МВД России по городу Великий Новгород,"Управление МВД России по городу Великий Новгород, Великий Новгород"
50.8168774,61.6641145,locality,approximate,"syktyvkar, komi republic, russia",61.859673,61.62344599999999,51.0695809,50.6247719,Сыктывкар,УМВД России по городу Сыктывкару,"УМВД России по городу Сыктывкару, Сыктывкар"
33.0855848,68.97331129999999,locality,approximate,"murmansk, murmansk oblast, russia",69.045076,68.88313,33.1651462,33.007079,Мурманск,Отдел полиции № 1 УМВД по городу Мурманску,"Отдел полиции № 1 УМВД по городу Мурманску, Мурманск"
39.6839373,54.5887002,political,approximate,"zheleznodorozhnyy rayon, ryazan, ryazan oblast, russia",54.6382554,54.52924350000001,39.7650308,39.61812339999999,Рязань,Отдел полиции № 3 (по Железнодорожному району города Рязани),"Отдел полиции № 3 (по Железнодорожному району города Рязани), Рязань"
92.8792579,56.007827,establishment,rooftop,"dubrovinskogo st, 72, krasnoyarsk, krasnoyarskiy kray, russia, 660049",56.0090537802915,56.0063558197085,92.88065283029151,92.87795486970849,Красноярск,Отдел полиции № 1 МУ МВД «Красноярское»,"Отдел полиции № 1 МУ МВД «Красноярское», Красноярск"
85.04847579999999,56.47379859999999,political,approximate,"sovetsky, tomsk, tomsk oblast, russia, 634055",56.4751475802915,56.4724496197085,85.0498247802915,85.0471268197085,Томск,Отдел полиции № 3 (по обслуживанию внутригородской территории Советский район) УМВД по городу Томску,"Отдел полиции № 3 (по обслуживанию внутригородской территории Советский район) УМВД по городу Томску, Томск"
45.0177481,53.1888581,administrative_area_level_2,approximate,"gorod penza, penza, penza oblast, russia",53.288824,53.101482,45.23116479999999,44.830076,Пенза,Отдел полиции № 1 УМВД по городу Пензе,"Отдел полиции № 1 УМВД по городу Пензе, Пенза"
28.749044,60.70956219999999,locality,approximate,"vyborg, leningrad oblast, russia",60.734281,60.68922309999999,28.8183139,28.68844899999999,Выборг,Управление МВД России по Выборгскому району,"Управление МВД России по Выборгскому району, Выборг"
34.314038,53.3121516,establishment,rooftop,"ulitsa ul'yanova, 38, bryansk, bryanskaya oblast', russia, 241035",53.31349883029149,53.3108008697085,34.3153855802915,34.3126876197085,Брянск,Отдел полиции № 1 (Бежицкий район г. Брянска),"Отдел полиции № 1 (Бежицкий район г. Брянска), Брянск"
34.3548022,53.237884,establishment,rooftop,"ulitsa oktyabr'skaya, 16, bryansk, bryanskaya oblast', russia, 241050",53.2393064302915,53.2366084697085,34.3560034302915,34.3533054697085,Брянск,УМВД России по г. Брянску,"УМВД России по г. Брянску, Брянск"
61.48546169999999,55.1052744,political,approximate,"leninskiy rayon, chelyabinsk, chelyabinsk oblast, russia",55.1629501,55.049108,61.5588523,61.40585669999999,Челябинск,Отдел полиции № 1 (Ленинский район) УМВД по городу Челябинску,"Отдел полиции № 1 (Ленинский район) УМВД по городу Челябинску, Челябинск"
61.3405976,55.1464892,political,approximate,"tsentral'nyy rayon, chelyabinsk, chelyabinsk oblast, russia",55.1791146,55.1172992,61.42827570000001,61.24240399999999,Челябинск,Отдел полиции № 5 (Центральный район) УМВД по городу Челябинску,"Отдел полиции № 5 (Центральный район) УМВД по городу Челябинску, Челябинск"
131.9112975,43.1332484,locality,approximate,"vladivostok, primorsky krai, russia",43.276021,43.057153,132.065634,131.841282,Владивосток,УМВД по городу Владивостоку (отдел полиции № 1),"УМВД по городу Владивостоку (отдел полиции № 1), Владивосток"
49.41821960000001,53.508525,locality,approximate,"tolyatti, samara oblast, russia",53.5960401,53.4477169,49.776359,49.196304,Тольятти,Отдел полиции № 24,"Отдел полиции № 24, Тольятти"
37.6203465,54.8275596,establishment,rooftop,"ulitsa gruzovaya, 3, pushchino, moskovskaya oblast', russia, 142290",54.8290833802915,54.8263854197085,37.6217456302915,37.6190476697085,Пущино,Отдел полиции «Пущинский»,"Отдел полиции «Пущинский», Пущино"
48.3571025,54.3468288,political,approximate,"leninskiy rayon, ulyanovsk, ulyanovsk oblast, russia",54.3737884,54.30550419999999,48.42815909999999,48.2965993,Ульяновск,Отдел МВД по Ленинскому району,"Отдел МВД по Ленинскому району, Ульяновск"
38.75551069999999,55.1009678,establishment,rooftop,"oktyabrskoy revolyutsii st, 200, kolomna, moskovskaya oblast', russia, 140400",55.1023518302915,55.0996538697085,38.7569152302915,38.7542172697085,Коломна,УМВД России по Коломенскому городскому округу,"УМВД России по Коломенскому городскому округу, Коломна"
50.1606382,53.203772,locality,approximate,"samara, samara oblast, russia",53.43131899999999,53.090497,50.39000009999999,50.006154,Самара,Отдел полиции № 4,"Отдел полиции № 4, Самара"
50.1606382,53.203772,locality,approximate,"samara, samara oblast, russia",53.43131899999999,53.090497,50.39000009999999,50.006154,Самара,Отдел полиции № 5,"Отдел полиции № 5, Самара"
37.6184915,54.204836,locality,approximate,"tula, tula oblast, russia",54.282504,54.087124,37.7410939,37.5137999,Тула,Отдел полиции «Центральный» УМВД по г. Туле,"Отдел полиции «Центральный» УМВД по г. Туле, Тула"
43.9757347,43.752449,establishment,rooftop,"ул. остапенко, 3, prokhladny, kabardino-balkarskaya respublika, russia, 361043",43.75358723029149,43.75088926970849,43.97718803029149,43.97449006970849,Прохладный,Межмуниципальный отдел МВД России «Прохладненский»,"Межмуниципальный отдел МВД России «Прохладненский», Прохладный"
38.0404592,55.9531502,establishment,rooftop,"sovetskaya ulitsa, 19а, fryazino, moskovskaya oblast', russia, 141190",55.9546461802915,55.9519482197085,38.0418468302915,38.0391488697085,Фрязино,Отдел полиции по г. о. Фрязино МУ МВД «Щелковское»,"Отдел полиции по г. о. Фрязино МУ МВД «Щелковское», Фрязино"
43.583913,43.479447,establishment,rooftop,"ulitsa baysultanova, 11а, nalchik, kabardino-balkarskaya respublika, russia, 360017",43.4808331802915,43.4781352197085,43.58538198029149,43.5826840197085,Нальчик,Отдел полиции № 2 УМВД по г. Нальчик,"Отдел полиции № 2 УМВД по г. Нальчик, Нальчик"
36.1947023,51.7482395,locality,approximate,"kursk, kursk oblast, russia",51.803375,51.62063999999999,36.303812,36.0604529,Курск,Отдел полиции № 1,"Отдел полиции № 1, Курск"
40.9262609,57.7677078,locality,approximate,"kostroma, kostroma oblast, russia",57.838441,57.709045,41.058145,40.8203588,Кострома,УМВД России по городу Костроме,"УМВД России по городу Костроме, Кострома"
105.318756,61.52401,country,approximate,russia,70,40,179,27,Евпатория,Отдел МВД по г. Евпатории,"Отдел МВД по г. Евпатории, Евпатория"
43.0312069,44.133131,establishment,rooftop,"ulitsa chaykovskogo, 1, zheleznovodsk, stavropolskiy kray, russia, 357400",44.1344893802915,44.1317914197085,43.0322433802915,43.0295454197085,Железноводск,Отдел МВД по г. Железноводску,"Отдел МВД по г. Железноводску, Железноводск"
39.8835411,57.6401187,cafe,rooftop,"ulitsa respublikanskaya, 3к2, yaroslavl', yaroslavskaya oblast', russia, 150003",57.64148263029151,57.6387846697085,39.8847695302915,39.8820715697085,Ярославль,Отдел МВД России по Кировскому городскому району,"Отдел МВД России по Кировскому городскому району, Ярославль"
37.1668974,56.7320202,locality,approximate,"dubna, moscow oblast, russia",56.782919,56.702935,37.2549658,37.108393,Дубна,Отдел МВД по г. о. Дубна,"Отдел МВД по г. о. Дубна, Дубна"
37.71573,55.725977,establishment,rooftop,"novokhokhlovskaya ulitsa, 27, moskva, russia, 109052",55.7271736302915,55.7244756697085,37.7172315802915,37.7145336197085,Москва,Отдел МВД России по Нижегородскому району,"Отдел МВД России по Нижегородскому району, Москва"
37.6438151,55.8083038,establishment,rooftop,"novoalekseyevskaya ulitsa, 10, moskva, russia, 129626",55.8096986802915,55.8070007197085,37.64509358029151,37.64239561970851,Москва,ОМВД Алексеевский,"ОМВД Алексеевский, Москва"
37.6148329,55.7843089,establishment,rooftop,"ulitsa sovetskoy armii, 12, корп. 1, moskva, russia, 127018",55.78573653029149,55.78303856970849,37.6162910302915,37.6135930697085,Москва,ОМВД Марьина Роща,"ОМВД Марьина Роща, Москва"
37.5904791,55.6396402,establishment,rooftop,"severnoye chertanovo ulitsa, 409 строение 1, moskva, russia, 117303",55.6409278802915,55.6382299197085,37.5919357302915,37.5892377697085,Москва,ОМВД России по району Зюзино г. Москвы,"ОМВД России по району Зюзино г. Москвы, Москва"
37.606746,55.64461499999999,establishment,rooftop,"chernomorskiy bul'var, 9, moskva, russia, 117452",55.6460561802915,55.6433582197085,37.6080929802915,37.6053950197085,Москва,ОМВД России по Нагорному району г. Москвы,"ОМВД России по Нагорному району г. Москвы, Москва"
37.5570439,55.69730329999999,establishment,rooftop,"ulitsa fotiyevoy, 9, moskva, russia, 119333",55.69871863029149,55.6960206697085,37.5582766302915,37.5555786697085,Москва,Отдел МВД по Гагаринскому району,"Отдел МВД по Гагаринскому району, Москва"
37.501899,55.8215221,establishment,rooftop,"старопетровский пр-кт, 2, moskva, russia, 125130",55.8227965802915,55.8200986197085,37.5033072302915,37.50060926970851,Москва,ОМВД России по Войковскому району,"ОМВД России по Войковскому району, Москва"
37.56467,55.8015844,political,approximate,"savyolovsky district, moscow, russia",55.8084289,55.7915801,37.588096,37.5490489,Москва,ОМВД России по району Савеловский г. Москвы,"ОМВД России по району Савеловский г. Москвы, Москва"
37.503512,55.746482,establishment,rooftop,"fizkul'turnyy proyezd, 2, moskva, russia, 121309",55.7477914302915,55.7450934697085,37.50473238029151,37.50203441970851,Москва,ОМВД России по району Филевский парк г. Москвы,"ОМВД России по району Филевский парк г. Москвы, Москва"
37.750304,55.652156,establishment,rooftop,"novomar'inskaya ulitsa, 7, moskva, russia, 109341",55.65346213029149,55.6507641697085,37.7513402802915,37.7486423197085,Москва,Отдел МВД России по району Марьино,"Отдел МВД России по району Марьино, Москва"
30.4102219,59.72187820000001,political,approximate,"pushkinsky district, st petersburg, russia",59.8294408,59.6338661,30.5773219,30.2184808,Санкт-Петербург,Отдел полиции № 4 Пушкинского района г. Санкт-Петербурга,"Отдел полиции № 4 Пушкинского района г. Санкт-Петербурга, Санкт-Петербург"
29.9733786,60.0965365,establishment,rooftop,"ulitsa volodarskogo, 7/9, sankt-peterburg, russia, 197706",60.0979086302915,60.09521066970849,29.97447763029149,29.9717796697085,Санкт-Петербург,Отдел МВД по Курортному району г. Санкт-Петербурга,"Отдел МВД по Курортному району г. Санкт-Петербурга, Санкт-Петербург"
29.8572096,59.8779997,establishment,rooftop,"ulitsa pervogo maya, 3, sankt-peterburg, russia, 198320",59.8792401802915,59.87654221970849,29.8584655302915,29.8557675697085,Санкт-Петербург,Отдел МВД по Петродворцовому району г. Санкт-Петербурга,"Отдел МВД по Петродворцовому району г. Санкт-Петербурга, Санкт-Петербург"
29.7655452,59.9959303,neighborhood,approximate,"kronstadt, st petersburg, russia",60.027806,59.969019,29.804204,29.6752299,Санкт-Петербург,Отдел МВД по Кронштадтскому району г. Санкт-Петербурга,"Отдел МВД по Кронштадтскому району г. Санкт-Петербурга, Санкт-Петербург"
60.7040619,56.76059040000001,establishment,rooftop,"inzhenernaya ulitsa, 54, yekaterinburg, sverdlovskaya oblast', russia, 620010",56.7619264802915,56.7592285197085,60.7052872802915,60.70258931970849,Екатеринбург,Отдел полиции № 5 УМВД по городу Екатеринбургу,"Отдел полиции № 5 УМВД по городу Екатеринбургу, Екатеринбург"
30.4056716,59.7364812,establishment,rooftop,"ulitsa vyacheslava shishkova, 32/15, sankt-peterburg, russia, 196605",59.73783538029151,59.73513741970849,30.4072493802915,30.4045514197085,Пушкин,Отдел МВД по Пушкинскому району г. Санкт-Петербурга,"Отдел МВД по Пушкинскому району г. Санкт-Петербурга, Пушкин"
104.293474,52.290782,establishment,geometric_center,"irkutsk, irkutsk oblast, russia, 664011",52.2921467302915,52.2894487697085,104.2948336802915,104.2921357197085,Иркутск,Отдел полиции № 7 УМВД по г. Иркутску,"Отдел полиции № 7 УМВД по г. Иркутску, Иркутск"
73.3645204,54.9913545,locality,approximate,"omsk, omsk oblast, russia",55.141854,54.8298979,73.61482389999999,73.097454,Омск,Отдел полиции № 10 УМВД по г. Омску,"Отдел полиции № 10 УМВД по г. Омску, Омск"
40.5571669,64.53128640000001,establishment,rooftop,"пр-кт ломоносова, 30, к. 1, arkhangel'sk, arkhangelskaya oblast', russia, 163002",64.53259108029151,64.5298931197085,40.5587262802915,40.5560283197085,Архангельск,Отдел полиции № 3 (по обслуживанию Ломоносовского округа г. Архангельска),"Отдел полиции № 3 (по обслуживанию Ломоносовского округа г. Архангельска), Архангельск"
86.0610653,55.3471692,establishment,rooftop,"prospekt kuznetskiy, 65, kemerovo, kemerovskaya oblast', russia, 650025",55.34852093029149,55.34582296970849,86.06285348029151,86.06015551970849,Кемерово,Отдел полиции «Центральный» УМВД по г. Кемерово,"Отдел полиции «Центральный» УМВД по г. Кемерово, Кемерово"
48.03792,46.353406,establishment,rooftop,"ulitsa sovetskoy militsii, 16, astrakhan, astrakhanskaya oblast', russia, 414000",46.3548271302915,46.3521291697085,48.0392972802915,48.0365993197085,Астрахань,УМВД России по г. Астрахани,"УМВД России по г. Астрахани, Астрахань"
65.35982299999999,55.44133069999999,establishment,rooftop,"ulitsa sovetskaya, 156, kurgan, kurganskaya oblast', russia, 640018",55.4427798802915,55.4400819197085,65.3610243302915,65.3583263697085,Курган,Отдел полиции № 1 УМВД по г. Кургану,"Отдел полиции № 1 УМВД по г. Кургану, Курган"
35.90838600000001,56.846529,establishment,rooftop,"ulitsa yerofeyeva, 5-а, tver, тверь, russia, 170034",56.84792598029149,56.8452280197085,35.90961488029151,35.90691691970851,Тверь,Отдел полиции Центральный УМВД по городу Твери,"Отдел полиции Центральный УМВД по городу Твери, Тверь"
28.3645,57.82226299999999,establishment,rooftop,"inzhenernaya ulitsa, 4а, pskov, pskovskaya oblast', russia, 180021",57.82366218029151,57.82096421970849,28.3661467802915,28.36344881970849,Псков,Отдел полиции № 2 УМВД по городу Пскову,"Отдел полиции № 2 УМВД по городу Пскову, Псков"
29.8572096,59.8779997,establishment,rooftop,"ulitsa pervogo maya, 3, sankt-peterburg, russia, 198320",59.8792401802915,59.87654221970849,29.8584655302915,29.8557675697085,Петергоф,Отдел МВД по Петродворцовому району г. Санкт-Петербурга,"Отдел МВД по Петродворцовому району г. Санкт-Петербурга, Петергоф"
39.0752987,44.09773819999999,establishment,rooftop,"ulitsa mira, 11, tuapse, krasnodarskiy kray, russia, 352800",44.0991175802915,44.0964196197085,39.0766936802915,39.0739957197085,Туапсе,Отдел МВД по Туапсинскому району,"Отдел МВД по Туапсинскому району, Туапсе"
37.6197598,55.736252,establishment,rooftop,"bolshaya polyanka st, дом 33\41, строение 3, м, moskva, russia, 119017",55.7375817802915,55.7348838197085,37.62094498029149,37.6182470197085,Москва,ОМВД России по району Якиманка г. Москвы,"ОМВД России по району Якиманка г. Москвы, Москва"
37.517835,55.800515,establishment,rooftop,"ulitsa novopeschanaya, 9а, moskva, russia, 125057",55.8019658802915,55.79926791970851,37.51921318029149,37.5165152197085,Москва,ОМВД России по району Сокол г. Москвы,"ОМВД России по району Сокол г. Москвы, Москва"
37.537003,55.779247,establishment,rooftop,"khoroshevskoye shosse, 40, moskva, russia, 123007",55.78049573029149,55.7777977697085,37.53850183029149,37.5358038697085,Москва,ОМВД России по району Хорошевский г. Москвы,"ОМВД России по району Хорошевский г. Москвы, Москва"
37.767619,55.732793,establishment,rooftop,"1-y kazanskiy prosek, 1а, moskva, russia, 109428",55.7341415302915,55.7314435697085,37.7690590802915,37.7663611197085,Москва,Отдел МВД России по Рязанскому району,"Отдел МВД России по Рязанскому району, Москва"
37.315516,55.47538369999999,establishment,rooftop,"лесхозная ул, 7, moskva, moskovskaya oblast', russia, 142190",55.4767982302915,55.4741002697085,37.3169573802915,37.3142594197085,Москва,МО МВД России «Троицкий» г. Москвы,"МО МВД России «Троицкий» г. Москвы, Москва"
37.732937,55.78533299999999,establishment,rooftop,"mironovskaya ulitsa, 11, moskva, russia, 105318",55.7866885802915,55.7839906197085,37.7344605302915,37.7317625697085,Москва,ОМВД России по району Соколиная Гора г. Москвы,"ОМВД России по району Соколиная Гора г. Москвы, Москва"
37.4770716,55.7750796,political,approximate,"khoroshevo-mnevniki district, moscow, russia",55.79545900000001,55.74076789999999,37.5210461,37.4025869,Москва,Хорошево-Мневники (новое здание),"Хорошево-Мневники (новое здание), Москва"
37.5898719,55.6006613,establishment,rooftop,"chertanovskaya ulitsa, 59б, moskva, russia, 117534",55.6020404302915,55.5993424697085,37.5908442802915,37.5881463197085,Москва,ОМВД России по району Чертаново Южное г. Москвы,"ОМВД России по району Чертаново Южное г. Москвы, Москва"
37.7247569,55.625904,establishment,rooftop,"borisovskiy proyezd, 18, moskva, russia, 115563",55.6273667302915,55.6246687697085,37.7261621802915,37.7234642197085,Москва,ОМВД России по району Орехово-Борисово Северное г. Москвы,"ОМВД России по району Орехово-Борисово Северное г. Москвы, Москва"
37.537787,55.86564,establishment,rooftop,"deguninskaya ulitsa, 10 а, moskva, russia, 127486",55.86699918029149,55.86430121970849,37.5392397302915,37.5365417697085,Москва,Отдел МВД по Ступинскому району,"Отдел МВД по Ступинскому району, Москва"
30.3924623,59.85941270000001,political,approximate,"frunzensky district, st petersburg, russia",59.9160951,59.81655120000001,30.4753838,30.3325751,Санкт-Петербург,Отдел полиции № 5 Фрунзенского района г. Санкт-Петербурга,"Отдел полиции № 5 Фрунзенского района г. Санкт-Петербурга, Санкт-Петербург"
60.7040619,56.76059040000001,establishment,rooftop,"inzhenernaya ulitsa, 54, yekaterinburg, sverdlovskaya oblast', russia, 620010",56.7619264802915,56.7592285197085,60.7052872802915,60.70258931970849,Екатеринбург,Отдел полиции № 1 УМВД по городу Екатеринбургу,"Отдел полиции № 1 УМВД по городу Екатеринбургу, Екатеринбург"
60.7040619,56.76059040000001,establishment,rooftop,"inzhenernaya ulitsa, 54, yekaterinburg, sverdlovskaya oblast', russia, 620010",56.7619264802915,56.7592285197085,60.7052872802915,60.70258931970849,Екатеринбург,Отдел полиции № 12 УМВД по городу Екатеринбургу,"Отдел полиции № 12 УМВД по городу Екатеринбургу, Екатеринбург"
60.7040619,56.76059040000001,establishment,rooftop,"inzhenernaya ulitsa, 54, yekaterinburg, sverdlovskaya oblast', russia, 620010",56.7619264802915,56.7592285197085,60.7052872802915,60.70258931970849,Екатеринбург,Отдел полиции № 3 УМВД по городу Екатеринбургу,"Отдел полиции № 3 УМВД по городу Екатеринбургу, Екатеринбург"
40.9306046,56.9908674,political,approximate,"frunzenskiy rayon, ivanovo, ivanovo oblast, russia",57.0230107,56.95306739999999,40.9863007,40.86946469999999,Иваново,Отдел полиции № 4 «Фрунзенский»,"Отдел полиции № 4 «Фрунзенский», Иваново"
56.258437,58.002898,establishment,rooftop,"ulitsa sibirskaya, 48, perm, permskiy kray, russia, 614007",58.00423653029151,58.0015385697085,56.2599591802915,56.2572612197085,Пермь,Отдел полиции № 6 (дисл. Ленинский р-н) УМВД по г. Перми,"Отдел полиции № 6 (дисл. Ленинский р-н) УМВД по г. Перми, Пермь"
92.8792579,56.007827,establishment,rooftop,"dubrovinskogo st, 72, krasnoyarsk, krasnoyarskiy kray, russia, 660049",56.0090537802915,56.0063558197085,92.88065283029151,92.87795486970849,Красноярск,Отдел полиции № 5 МУ МВД «Красноярское»,"Отдел полиции № 5 МУ МВД «Красноярское», Красноярск"
92.8792579,56.007827,establishment,rooftop,"dubrovinskogo st, 72, krasnoyarsk, krasnoyarskiy kray, russia, 660049",56.0090537802915,56.0063558197085,92.88065283029151,92.87795486970849,Красноярск,Отдел полиции № 7 МУ МВД «Красноярское»,"Отдел полиции № 7 МУ МВД «Красноярское», Красноярск"
135.1099778,48.4425181,establishment,rooftop,"ulitsa timiryazeva, 65, khabarovsk, khabarovskiy kray, russia, 680000",48.44383818029151,48.44114021970851,135.1110845802915,135.1083866197085,Хабаровск,Отдел полиции № 4 УМВД по г. Хабаровску,"Отдел полиции № 4 УМВД по г. Хабаровску, Хабаровск"
37.6519263,55.7800679,establishment,rooftop,"komsomol'skaya ploshchad', 3/49, moskva, russia, 107140",55.7814343802915,55.7787364197085,37.6533538802915,37.65065591970851,Химки,Линейный отдел МВД России на станции Москва-Ленинградская,"Линейный отдел МВД России на станции Москва-Ленинградская, Химки"
40.1084723,47.41483849999999,locality,approximate,"novocherkassk, rostov oblast, russia",47.501359,47.371303,40.2766419,40.017208,Новочеркасск,Отдел полиции № 1 МУ МВД «Новочеркасское»,"Отдел полиции № 1 МУ МВД «Новочеркасское», Новочеркасск"
37.7370189,44.7392842,establishment,rooftop,"anapskoye shosse, 57-а, novorossiysk, krasnodarskiy kray, russia, 353912",44.7403576802915,44.7376597197085,37.7381014802915,37.73540351970851,Новороссийск,Отдел полиции (Центральный район) УМВД по г. Новороссийску,"Отдел полиции (Центральный район) УМВД по г. Новороссийску, Новороссийск"
34.17591710000001,44.4973585,premise,rooftop,"masandrivska st, 3, yalta",44.498732130291494,44.4960341697085,34.1772512302915,34.1745532697085,Ялта,Отдел полиции № 3 «Массандровский» УМВД по г. Ялта,"Отдел полиции № 3 «Массандровский» УМВД по г. Ялта, Ялта"
40.5498667,64.5564615,political,approximate,"oktyabr'skiy okrug, arkhangelsk, arkhangelsk oblast, russia",64.589682,64.5349562,40.6047749,40.49631249999999,Архангельск,Отдел полиции № 4 (по обслуживанию Октябрьского округа г. Архангельска),"Отдел полиции № 4 (по обслуживанию Октябрьского округа г. Архангельска), Архангельск"
37.52233349999999,55.8940527,political,approximate,"dmitrovsky district, moscow, russia",55.90763,55.872825,37.5529438,37.4960628,Москва,ОМВД по району Дмитровский,"ОМВД по району Дмитровский, Москва"
37.87789739999999,55.70913059999999,administrative_area_level_3,approximate,"kosino-ukhtomskiy, moscow, russia",55.73316999999999,55.69517519999999,37.9456611,37.836032,Москва,Отдел МВД России по Косино-Ухтомскому району г. Москвы,"Отдел МВД России по Косино-Ухтомскому району г. Москвы, Москва"
37.342565,55.858054,establishment,rooftop,"ulitsa baryshikha, 49, moskva, russia, 125310",55.8593201302915,55.8566221697085,37.34424003029149,37.3415420697085,Москва,Отдел МВД России по району Митино г. Москвы,"Отдел МВД России по району Митино г. Москвы, Москва"
37.809512,55.721366,establishment,rooftop,"111402, ulitsa krasnyy kazanets, 7-а, moskva, russia, 111395",55.7227528302915,55.72005486970851,37.8107458302915,37.8080478697085,Москва,Отдел МВД России по району Вешняки г. Москвы,"Отдел МВД России по району Вешняки г. Москвы, Москва"
37.7962289,55.816496,establishment,rooftop,"baykal'skaya ulitsa, 20, moskva, russia, 107207",55.81798783029149,55.8152898697085,37.7975834802915,37.7948855197085,Москва,Отдел МВД России по району Гольяново г. Москвы,"Отдел МВД России по району Гольяново г. Москвы, Москва"
37.5776642,55.57153,political,approximate,"severnoye butovo district, moscow, russia",55.587242,55.550006,37.6041409,37.5371279,Москва,ОМВД России по району Бутово Северное г. Москвы,"ОМВД России по району Бутово Северное г. Москвы, Москва"
37.46553919999999,55.5647128,establishment,rooftop,"ulitsa sosenskiy stan, 8б, moskva, moskovskaya oblast', russia, 142770",55.56595943029149,55.56326146970849,37.4669129802915,37.4642150197085,Москва,МО МВД России «Коммунарский» г. Москвы,"МО МВД России «Коммунарский» г. Москвы, Москва"
30.3350941,59.9342596,administrative_area_level_1,approximate,"saint petersburg, st petersburg, russia",60.246742,59.63408599999999,30.76454409999999,29.4247991,Москва,Отдел полиции № 33 Московского района г. Санкт-Петербурга,"Отдел полиции № 33 Московского района г. Санкт-Петербурга, Москва"
37.3725948,55.9350166,route,geometric_center,"m-10, moskva, russia",55.96100660000003,55.90781389999997,37.41107459999999,37.3350722,Москва,ОМВД России по району Молжаниновский г. Москвы,"ОМВД России по району Молжаниновский г. Москвы, Москва"
37.4655581,55.8622588,administrative_area_level_3,approximate,"levoberezhnyy, moscow, russia",55.8839699,55.847596,37.496625,37.4369439,Москва,ОМВД России по Левобережному району г. Москвы,"ОМВД России по Левобережному району г. Москвы, Москва"
37.5082189,55.6955232,establishment,rooftop,"michurinskiy prospekt, д. 17 корп. 2, moskva, russia, 119192",55.6969241302915,55.6942261697085,37.51017143029149,37.5074734697085,Москва,ОМВД России по району Раменки г. Москвы,"ОМВД России по району Раменки г. Москвы, Москва"
37.2024444,55.9731337,establishment,rooftop,"микрорайон 8-й, корпус 860, zelenograd, moskva, russia, 124527",55.97457228029149,55.9718743197085,37.2034559802915,37.2007580197085,Москва,ОМВД России по районам Силино и Старое Крюково г. Москвы,"ОМВД России по районам Силино и Старое Крюково г. Москвы, Москва"
37.3638906,55.59638,establishment,rooftop,"ulitsa lapteva, 12, moskva, russia, 142784",55.59777198029149,55.59507401970849,37.3652611302915,37.3625631697085,Москва,МО МВД России «Московский» г. Москвы,"МО МВД России «Московский» г. Москвы, Москва"
37.72664049999999,55.8143903,establishment,rooftop,"boytsovaya ulitsa, 22а, moskva, russia, 107150",55.8157745802915,55.8130766197085,37.72806043029149,37.72536246970849,Москва,Отдел МВД России по району Богородское г. Москвы,"Отдел МВД России по району Богородское г. Москвы, Москва"
30.2556906,60.0808432,political,approximate,"vyborgsky district, st petersburg, russia",60.1255121,59.95165429999999,30.3888101,30.0711313,Санкт-Петербург,Отдел полиции № 36 Выборгского района г. Санкт-Петербурга,"Отдел полиции № 36 Выборгского района г. Санкт-Петербурга, Санкт-Петербург"
29.7963541,59.88934519999999,political,approximate,"petrodvortsovy district, st petersburg, russia",59.9375022,59.81519609999999,30.0965216,29.6475455,Санкт-Петербург,Отдел полиции № 46 Петродворцовому району г. Санкт-Петербурга,"Отдел полиции № 46 Петродворцовому району г. Санкт-Петербурга, Санкт-Петербург"
30.3116928,59.8559849,establishment,rooftop,"varshavskaya ulitsa, 47, корп. 3, sankt-peterburg, russia, 196191",59.8573336802915,59.8546357197085,30.31295108029149,30.3102531197085,Санкт-Петербург,12 отдел полиции по Фрунзенскому району Санкт-Петербурга,"12 отдел полиции по Фрунзенскому району Санкт-Петербурга, Санкт-Петербург"
30.2316628,59.9477569,political,approximate,"vasileostrovsky district, st petersburg, russia",59.9621661,59.91743700000001,30.3110012,30.1779189,Санкт-Петербург,Отдел полиции № 37 Василеостровского района г. Санкт-Петербурга,"Отдел полиции № 37 Василеостровского района г. Санкт-Петербурга, Санкт-Петербург"
30.3003668,59.9616816,route,geometric_center,"gatchinskaya ulitsa, sankt-peterburg, russia",59.96380009999999,59.9595921,30.3058631,30.2949435,Санкт-Петербург,Управление МВД России по Гатчинскому району,"Управление МВД России по Гатчинскому району, Санкт-Петербург"
30.3492604,59.90655599999999,establishment,rooftop,"rasstannaya ulitsa, 15, sankt-peterburg, russia, 192159",59.90799043029151,59.9052924697085,30.3506886302915,30.3479906697085,Санкт-Петербург,УМВД по Фрунзенскому району г. Санкт-Петербурга,"УМВД по Фрунзенскому району г. Санкт-Петербурга, Санкт-Петербург"
30.4700626,59.88203410000001,political,approximate,"nevsky district, st petersburg, russia",59.93734809999999,59.8059846,30.5686705,30.3630155,Санкт-Петербург,Отдел полиции № 24 Невского района г. Санкт-Петербурга,"Отдел полиции № 24 Невского района г. Санкт-Петербурга, Санкт-Петербург"
33.6567133,60.52849860000001,administrative_area_level_2,approximate,"lodeynopol'skiy rayon, leningrad oblast, russia",61.010616,60.13868799999999,34.6445011,32.305937,Санкт-Петербург,Отдел МВД по Лодейнопольскому району Ленинградской области,"Отдел МВД по Лодейнопольскому району Ленинградской области, Санкт-Петербург"
30.4700626,59.88203410000001,political,approximate,"nevsky district, st petersburg, russia",59.93734809999999,59.8059846,30.5686705,30.3630155,Санкт-Петербург,Отдел полиции № 23 Невского района г. Санкт-Петербурга,"Отдел полиции № 23 Невского района г. Санкт-Петербурга, Санкт-Петербург"
30.2316628,59.9477569,political,approximate,"vasileostrovsky district, st petersburg, russia",59.9621661,59.91743700000001,30.3110012,30.1779189,Санкт-Петербург,Отдел полиции № 60 Василеостровского района г. Санкт-Петербурга,"Отдел полиции № 60 Василеостровского района г. Санкт-Петербурга, Санкт-Петербург"
43.9913472,56.3301101,establishment,rooftop,"nizhnevolzhskaya embankment, 12, nizhnij novgorod, nizhegorodskaya oblast', russia, 603001",56.3315494802915,56.3288515197085,43.9926172802915,43.9899193197085,Нижний Новгород,Отдел полиции № 8 УМВД по Нижнему Новгороду,"Отдел полиции № 8 УМВД по Нижнему Новгороду, Нижний Новгород"
43.9913472,56.3301101,establishment,rooftop,"nizhnevolzhskaya embankment, 12, nizhnij novgorod, nizhegorodskaya oblast', russia, 603001",56.3315494802915,56.3288515197085,43.9926172802915,43.9899193197085,Нижний Новгород,Отдел полиции № 4 УМВД по Нижнему Новгороду,"Отдел полиции № 4 УМВД по Нижнему Новгороду, Нижний Новгород"
49.119288,55.797041,establishment,rooftop,"ulitsa karla marksa, 21, kazan, respublika tatarstan, russia, 420111",55.7982336802915,55.7955357197085,49.1205916802915,49.1178937197085,Казань,Отдел полиции № 8 «Горки» УМВД по г Казани,"Отдел полиции № 8 «Горки» УМВД по г Казани, Казань"
49.119288,55.797041,establishment,rooftop,"ulitsa karla marksa, 21, kazan, respublika tatarstan, russia, 420111",55.7982336802915,55.7955357197085,49.1205916802915,49.1178937197085,Казань,Отдел полиции № 5 «Московский» УМВД по г. Казани,"Отдел полиции № 5 «Московский» УМВД по г. Казани, Казань"
49.119288,55.797041,establishment,rooftop,"ulitsa karla marksa, 21, kazan, respublika tatarstan, russia, 420111",55.7982336802915,55.7955357197085,49.1205916802915,49.1178937197085,Казань,Отдел полиции № 3 «Зареченский» УМВД по г. Казани,"Отдел полиции № 3 «Зареченский» УМВД по г. Казани, Казань"
50.1606382,53.203772,locality,approximate,"samara, samara oblast, russia",53.43131899999999,53.090497,50.39000009999999,50.006154,Самара,Отдел полиции № 1,"Отдел полиции № 1, Самара"
50.1606382,53.203772,locality,approximate,"samara, samara oblast, russia",53.43131899999999,53.090497,50.39000009999999,50.006154,Самара,Отдел полиции № 7,"Отдел полиции № 7, Самара"
82.9654103,55.083094,establishment,rooftop,"ulitsa uchitel'skaya, 40а, novosibirsk, novosibirskaya oblast', russia, 630110",55.0844130802915,55.08171511970851,82.96669298029151,82.96399501970849,Новосибирск,Отдел полиции № 4 «Калининский»,"Отдел полиции № 4 «Калининский», Новосибирск"
61.38584280000001,55.079823,political,approximate,"sovetskiy rayon, chelyabinsk, chelyabinsk oblast, russia",55.1610926,54.98386679999999,61.46536640000001,61.19128239999999,Челябинск,Отдел полиции № 3 (Советский район) УМВД по городу Челябинску,"Отдел полиции № 3 (Советский район) УМВД по городу Челябинску, Челябинск"
61.42801530000001,55.1849476,establishment,rooftop,"prospekt pobedy, 123, chelyabinsk, chelyabinskaya oblast', russia, 454001",55.1863481802915,55.1836502197085,61.4293852302915,61.42668726970849,Челябинск,Отдел полиции № 6 (Калининский район) УМВД по городу Челябинску,"Отдел полиции № 6 (Калининский район) УМВД по городу Челябинску, Челябинск"
40.53614,64.54833099999999,establishment,rooftop,"ул. логинова, д. 31, arkhangel'sk, arkhangelskaya oblast', russia, 163071",64.5494075802915,64.5467096197085,40.53737888029149,40.5346809197085,Архангельск,УМВД России по городу Архангельску,"УМВД России по городу Архангельску, Архангельск"
55.9764785,54.7375869,establishment,rooftop,"ulitsa 50 let oktyabrya, 26, ufa, respublika bashkortostan, russia, 450054",54.73894593029149,54.73624796970849,55.9777563302915,55.9750583697085,Уфа,Отдел полиции № 7 (Советский район),"Отдел полиции № 7 (Советский район), Уфа"
73.3645204,54.9913545,locality,approximate,"omsk, omsk oblast, russia",55.141854,54.8298979,73.61482389999999,73.097454,Омск,Отдел полиции № 6 УМВД по г. Омску,"Отдел полиции № 6 УМВД по г. Омску, Омск"
45.89935879999999,51.6102692,political,approximate,"leninskiy rayon, saratov, saratov oblast, russia",51.6882432,51.5542926,46.026576,45.8189462,Саратов,Отдел полиции № 4 в составе УМВД по городу Саратову (Ленинский район),"Отдел полиции № 4 в составе УМВД по городу Саратову (Ленинский район), Саратов"
36.255876,54.535248,establishment,rooftop,"ulitsa komsomol'skaya roshcha, 10, kaluga, kaluzhskaya oblast', russia, 248010",54.53667903029149,54.5339810697085,36.2572252802915,36.2545273197085,Калуга,УМВД России по г. Калуге,"УМВД России по г. Калуге, Калуга"
50.82531299999999,61.674331,establishment,rooftop,"pervomayskaya ulitsa, 21, syktyvkar, respúblika kómi, russia, 167981",61.6756568802915,61.67295891970849,50.8262584302915,50.8235604697085,Сыктывкар,Отдел полиции № 1 в составе УМВД по г. Сыктывкару,"Отдел полиции № 1 в составе УМВД по г. Сыктывкару, Сыктывкар"
83.78208599999999,53.35506299999999,establishment,rooftop,"putilovskaya ulitsa, 26, barnaul, altayskiy kray, russia, 656038",53.3563151302915,53.3536171697085,83.7835380802915,83.7808401197085,Барнаул,Отдел полиции № 1 УМВД по г. Барнаулу,"Отдел полиции № 1 УМВД по г. Барнаулу, Барнаул"
83.78208599999999,53.35506299999999,establishment,rooftop,"putilovskaya ulitsa, 26, barnaul, altayskiy kray, russia, 656038",53.3563151302915,53.3536171697085,83.7835380802915,83.7808401197085,Барнаул,Отдел полиции № 4 УМВД по г. Барнаулу,"Отдел полиции № 4 УМВД по г. Барнаулу, Барнаул"
105.318756,61.52401,country,approximate,russia,70,40,179,27,Симферополь,Отдел полиции № 3 «Центральный» УМВД по г. Симферополю,"Отдел полиции № 3 «Центральный» УМВД по г. Симферополю, Симферополь"
60.7040619,56.76059040000001,establishment,rooftop,"inzhenernaya ulitsa, 54, yekaterinburg, sverdlovskaya oblast', russia, 620010",56.7619264802915,56.7592285197085,60.7052872802915,60.70258931970849,Екатеринбург,Отдел полиции № 6 УМВД по городу Екатеринбургу,"Отдел полиции № 6 УМВД по городу Екатеринбургу, Екатеринбург"
59.1093995,53.4889579,route,geometric_center,"magnitogorsk, chelyabinskaya oblast', russia",53.49019280000002,53.48425299999997,59.1111587,59.1027541,Магнитогорск,Отдел полиции № 10 (Орджоникидзевский П) УМВД по г. Магнитогорску,"Отдел полиции № 10 (Орджоникидзевский П) УМВД по г. Магнитогорску, Магнитогорск"
59.06230669999999,53.3927214,locality,approximate,"magnitogorsk, chelyabinsk oblast, russia",53.49014099999999,53.31634,59.1944819,58.924276,Магнитогорск,Отдел полиции № 8 (Ленинский) УМВД по г. Магнитогорску,"Отдел полиции № 8 (Ленинский) УМВД по г. Магнитогорску, Магнитогорск"
58.97962579999999,53.39328330000001,establishment,rooftop,"k. marx ave, 119/1, magnitogorsk, chelyabinskaya oblast', russia, 455037",53.39476118029151,53.39206321970851,58.9810997802915,58.97840181970849,Магнитогорск,Отдел полиции № 9 (Правобережный) УМВД по г. Магнитогорску,"Отдел полиции № 9 (Правобережный) УМВД по г. Магнитогорску, Магнитогорск"
52.40332739999999,55.7330546,establishment,rooftop,"prospekt p. belyayeva, 13, naberezhnye chelny, respublika tatarstan, russia, 423812",55.73432373029149,55.73162576970849,52.4046222802915,52.4019243197085,Набережные Челны,Отдел полиции № 3 «Центральный» УМВД по г. Набережные Челны,"Отдел полиции № 3 «Центральный» УМВД по г. Набережные Челны, Набережные Челны"
41.919281,45.037943,establishment,rooftop,"ulitsa lenina, 421, stavropol, stavropolskiy kray, russia, 355029",45.0390620302915,45.0363640697085,41.9205133302915,41.9178153697085,Ставрополь,Отдел полиции № 1 УМВД по г. Ставрополю,"Отдел полиции № 1 УМВД по г. Ставрополю, Ставрополь"
142.7284716,46.9640949,locality,approximate,"yuzhno-sakhalinsk, sakhalin oblast, russia",47.068441,46.85188790000001,142.781967,142.679602,Южно-Сахалинск,УМВД по городу Южно-Сахалинску,"УМВД по городу Южно-Сахалинску, Южно-Сахалинск"
85.06711729999999,56.5221957,establishment,rooftop,"ulitsa irkutskiy trakt, 198/1, стр.3, tomsk, tomskaya oblast', russia, 634040",56.52341593029149,56.5207179697085,85.0680737802915,85.06537581970849,Томск,Отдел МВД по Томскому району,"Отдел МВД по Томскому району, Томск"
33.543131,60.73431240000001,locality,approximate,"lodeynoye pole, leningrad oblast, russia",60.74303500000001,60.7172941,33.601389,33.4866621,Лодейное Поле,Отдел МВД по Лодейнопольскому району Ленинградской области,"Отдел МВД по Лодейнопольскому району Ленинградской области, Лодейное Поле"
34.3640396,61.77816170000001,locality,approximate,"petrozavodsk, republic of karelia, russia",61.860201000000004,61.71253900000001,34.4795017,34.2032958,Петрозаводск,УМВД России по городу Петрозаводску,"УМВД России по городу Петрозаводску, Петрозаводск"
37.2645239,55.6697877,establishment,rooftop,"mozhayskoye shosse, 4, odintsovo, moskovskaya oblast', russia, 143007",55.67138063029149,55.6686826697085,37.2656496302915,37.2629516697085,Одинцово,Отдел полиции № 1 МУ МВД «Одинцовское»,"Отдел полиции № 1 МУ МВД «Одинцовское», Одинцово"
37.5436872,55.4356422,establishment,rooftop,"revolyutsionnyy prospekt, 84, podolsk, moskovskaya oblast', russia, 142100",55.4369560802915,55.4342581197085,37.54499198029149,37.5422940197085,Подольск,Отдел полиции № 3 УМВД по городскому округу Подольск,"Отдел полиции № 3 УМВД по городскому округу Подольск, Подольск"
